<?xml version="1.0" encoding="UTF-8" standalone="yes"?>
<gpx version="1.1" creator="outdooractive - http://www.outdooractive.com" xmlns="http://www.topografix.com/GPX/1/1" xmlns:oa="http://www.outdooractive.com/GPX/Extensions/1" xmlns:xsi="http://www.w3.org/2001/XMLSchema-instance" xsi:schemaLocation="http://www.topografix.com/GPX/1/1 http://www.topografix.com/GPX/1/1/gpx.xsd http://www.outdooractive.com/GPX/Extensions/1 https://www.outdooractive.com/schema/gpx_extensions.xsd">
  <metadata>
    <name>Welser Höhenweg – Etappe 2. Vom Prielschutzhaus zur Pühringerhütte</name>
    <author>
      <name>Wolfram Sterrer - Alpenverein Wels</name>
    </author>
    <link href="https://www.outdooractive.com/r/44798395"/>
    <time>2026-06-22T16:15:12.066Z</time>
    <extensions>
      <oa:oaCategory>hikingTourTrail</oa:oaCategory>
    </extensions>
  </metadata>
  <trk>
    <name>Welser Höhenweg – Etappe 2. Vom Prielschutzhaus zur Pühringerhütte</name>
    <desc>Prielschutzhaus (1422 m) -  Klinserscharte (1805 m) - Klinserschlucht - Temlbergsattel (2070 m) - Zentrales Hochplateau - Rotkogelsattel (2000 m) - Pühringerhütte (1638 m)</desc>
    <type>hikingTourTrail</type>
    <trkseg>
      <trkpt lat="47.704762" lon="14.082003">
        <ele>1410.5</ele>
      </trkpt>
      <trkpt lat="47.704797" lon="14.081785">
        <ele>1412.7</ele>
      </trkpt>
      <trkpt lat="47.704855" lon="14.081435">
        <ele>1410.8</ele>
      </trkpt>
      <trkpt lat="47.704906" lon="14.081103">
        <ele>1412.9</ele>
      </trkpt>
      <trkpt lat="47.704968" lon="14.081017">
        <ele>1417.0</ele>
      </trkpt>
      <trkpt lat="47.704992" lon="14.081037">
        <ele>1417.9</ele>
      </trkpt>
      <trkpt lat="47.704978" lon="14.081244">
        <ele>1416.4</ele>
      </trkpt>
      <trkpt lat="47.704972" lon="14.081269">
        <ele>1416.2</ele>
      </trkpt>
      <trkpt lat="47.704973" lon="14.081309">
        <ele>1416.5</ele>
      </trkpt>
      <trkpt lat="47.705002" lon="14.081447">
        <ele>1420.0</ele>
      </trkpt>
      <trkpt lat="47.705016" lon="14.081576">
        <ele>1422.4</ele>
      </trkpt>
      <trkpt lat="47.705063" lon="14.08162">
        <ele>1425.3</ele>
      </trkpt>
      <trkpt lat="47.70511" lon="14.081594">
        <ele>1427.8</ele>
      </trkpt>
      <trkpt lat="47.705225" lon="14.081384">
        <ele>1434.3</ele>
      </trkpt>
      <trkpt lat="47.705278" lon="14.081259">
        <ele>1437.5</ele>
      </trkpt>
      <trkpt lat="47.705357" lon="14.081154">
        <ele>1441.8</ele>
      </trkpt>
      <trkpt lat="47.705417" lon="14.081059">
        <ele>1444.9</ele>
      </trkpt>
      <trkpt lat="47.705548" lon="14.080769">
        <ele>1450.9</ele>
      </trkpt>
      <trkpt lat="47.70571" lon="14.080366">
        <ele>1458.0</ele>
      </trkpt>
      <trkpt lat="47.705872" lon="14.079962">
        <ele>1461.1</ele>
      </trkpt>
      <trkpt lat="47.705982" lon="14.079658">
        <ele>1467.9</ele>
      </trkpt>
      <trkpt lat="47.705988" lon="14.079465">
        <ele>1468.9</ele>
      </trkpt>
      <trkpt lat="47.705996" lon="14.079212">
        <ele>1468.7</ele>
      </trkpt>
      <trkpt lat="47.706031" lon="14.078984">
        <ele>1470.8</ele>
      </trkpt>
      <trkpt lat="47.706093" lon="14.0788">
        <ele>1474.6</ele>
      </trkpt>
      <trkpt lat="47.70615" lon="14.078719">
        <ele>1476.5</ele>
      </trkpt>
      <trkpt lat="47.706198" lon="14.078565">
        <ele>1477.8</ele>
      </trkpt>
      <trkpt lat="47.706201" lon="14.078441">
        <ele>1478.6</ele>
      </trkpt>
      <trkpt lat="47.706203" lon="14.078308">
        <ele>1479.6</ele>
      </trkpt>
      <trkpt lat="47.706215" lon="14.078174">
        <ele>1480.2</ele>
      </trkpt>
      <trkpt lat="47.70632" lon="14.077914">
        <ele>1484.8</ele>
      </trkpt>
      <trkpt lat="47.706406" lon="14.077764">
        <ele>1487.0</ele>
      </trkpt>
      <trkpt lat="47.706492" lon="14.077664">
        <ele>1489.5</ele>
      </trkpt>
      <trkpt lat="47.706521" lon="14.077599">
        <ele>1491.0</ele>
      </trkpt>
      <trkpt lat="47.706564" lon="14.07743">
        <ele>1494.0</ele>
      </trkpt>
      <trkpt lat="47.706633" lon="14.07731">
        <ele>1496.7</ele>
      </trkpt>
      <trkpt lat="47.706659" lon="14.07721">
        <ele>1497.6</ele>
      </trkpt>
      <trkpt lat="47.706681" lon="14.077027">
        <ele>1499.8</ele>
      </trkpt>
      <trkpt lat="47.706713" lon="14.076932">
        <ele>1503.3</ele>
      </trkpt>
      <trkpt lat="47.706729" lon="14.076788">
        <ele>1506.6</ele>
      </trkpt>
      <trkpt lat="47.706728" lon="14.076719">
        <ele>1507.6</ele>
      </trkpt>
      <trkpt lat="47.706698" lon="14.076655">
        <ele>1506.7</ele>
      </trkpt>
      <trkpt lat="47.706598" lon="14.07636">
        <ele>1505.7</ele>
      </trkpt>
      <trkpt lat="47.706519" lon="14.075985">
        <ele>1511.7</ele>
      </trkpt>
      <trkpt lat="47.706411" lon="14.075537">
        <ele>1517.7</ele>
      </trkpt>
      <trkpt lat="47.706356" lon="14.07528">
        <ele>1522.0</ele>
      </trkpt>
      <trkpt lat="47.706334" lon="14.075117">
        <ele>1525.4</ele>
      </trkpt>
      <trkpt lat="47.706333" lon="14.074926">
        <ele>1531.7</ele>
      </trkpt>
      <trkpt lat="47.706247" lon="14.074775">
        <ele>1531.8</ele>
      </trkpt>
      <trkpt lat="47.706191" lon="14.074709">
        <ele>1532.1</ele>
      </trkpt>
      <trkpt lat="47.706116" lon="14.074644">
        <ele>1533.6</ele>
      </trkpt>
      <trkpt lat="47.706065" lon="14.074608">
        <ele>1533.8</ele>
      </trkpt>
      <trkpt lat="47.706022" lon="14.074575">
        <ele>1533.8</ele>
      </trkpt>
      <trkpt lat="47.706012" lon="14.074512">
        <ele>1535.7</ele>
      </trkpt>
      <trkpt lat="47.706009" lon="14.074486">
        <ele>1536.5</ele>
      </trkpt>
      <trkpt lat="47.705951" lon="14.074416">
        <ele>1537.7</ele>
      </trkpt>
      <trkpt lat="47.705898" lon="14.074384">
        <ele>1537.2</ele>
      </trkpt>
      <trkpt lat="47.705825" lon="14.074318">
        <ele>1536.5</ele>
      </trkpt>
      <trkpt lat="47.705787" lon="14.074293">
        <ele>1537.0</ele>
      </trkpt>
      <trkpt lat="47.70575" lon="14.074305">
        <ele>1537.1</ele>
      </trkpt>
      <trkpt lat="47.705692" lon="14.074343">
        <ele>1538.2</ele>
      </trkpt>
      <trkpt lat="47.705635" lon="14.074381">
        <ele>1540.3</ele>
      </trkpt>
      <trkpt lat="47.705553" lon="14.074472">
        <ele>1543.0</ele>
      </trkpt>
      <trkpt lat="47.705513" lon="14.074517">
        <ele>1543.0</ele>
      </trkpt>
      <trkpt lat="47.705468" lon="14.074533">
        <ele>1543.6</ele>
      </trkpt>
      <trkpt lat="47.705405" lon="14.074515">
        <ele>1544.6</ele>
      </trkpt>
      <trkpt lat="47.705353" lon="14.074509">
        <ele>1544.4</ele>
      </trkpt>
      <trkpt lat="47.705302" lon="14.074469">
        <ele>1545.1</ele>
      </trkpt>
      <trkpt lat="47.705183" lon="14.074308">
        <ele>1548.4</ele>
      </trkpt>
      <trkpt lat="47.70515" lon="14.074278">
        <ele>1548.9</ele>
      </trkpt>
      <trkpt lat="47.705027" lon="14.074214">
        <ele>1550.5</ele>
      </trkpt>
      <trkpt lat="47.704861" lon="14.07412">
        <ele>1554.8</ele>
      </trkpt>
      <trkpt lat="47.704702" lon="14.074019">
        <ele>1557.3</ele>
      </trkpt>
      <trkpt lat="47.704536" lon="14.073911">
        <ele>1562.8</ele>
      </trkpt>
      <trkpt lat="47.704465" lon="14.073864">
        <ele>1565.1</ele>
      </trkpt>
      <trkpt lat="47.704352" lon="14.073825">
        <ele>1566.6</ele>
      </trkpt>
      <trkpt lat="47.704329" lon="14.073784">
        <ele>1567.5</ele>
      </trkpt>
      <trkpt lat="47.704324" lon="14.073692">
        <ele>1569.2</ele>
      </trkpt>
      <trkpt lat="47.704303" lon="14.073636">
        <ele>1570.2</ele>
      </trkpt>
      <trkpt lat="47.704197" lon="14.073556">
        <ele>1573.6</ele>
      </trkpt>
      <trkpt lat="47.704151" lon="14.073472">
        <ele>1575.0</ele>
      </trkpt>
      <trkpt lat="47.704083" lon="14.073403">
        <ele>1578.0</ele>
      </trkpt>
      <trkpt lat="47.704033" lon="14.073344">
        <ele>1579.8</ele>
      </trkpt>
      <trkpt lat="47.704017" lon="14.073274">
        <ele>1580.4</ele>
      </trkpt>
      <trkpt lat="47.703996" lon="14.073189">
        <ele>1581.2</ele>
      </trkpt>
      <trkpt lat="47.703978" lon="14.073122">
        <ele>1583.1</ele>
      </trkpt>
      <trkpt lat="47.703869" lon="14.072983">
        <ele>1584.7</ele>
      </trkpt>
      <trkpt lat="47.703719" lon="14.072707">
        <ele>1585.0</ele>
      </trkpt>
      <trkpt lat="47.703681" lon="14.07266">
        <ele>1586.7</ele>
      </trkpt>
      <trkpt lat="47.703618" lon="14.072627">
        <ele>1587.7</ele>
      </trkpt>
      <trkpt lat="47.703528" lon="14.072614">
        <ele>1586.6</ele>
      </trkpt>
      <trkpt lat="47.703395" lon="14.072591">
        <ele>1584.5</ele>
      </trkpt>
      <trkpt lat="47.703339" lon="14.072532">
        <ele>1584.5</ele>
      </trkpt>
      <trkpt lat="47.703222" lon="14.072286">
        <ele>1584.9</ele>
      </trkpt>
      <trkpt lat="47.703191" lon="14.072149">
        <ele>1586.2</ele>
      </trkpt>
      <trkpt lat="47.703188" lon="14.07203">
        <ele>1588.8</ele>
      </trkpt>
      <trkpt lat="47.703132" lon="14.071949">
        <ele>1589.3</ele>
      </trkpt>
      <trkpt lat="47.703016" lon="14.07164">
        <ele>1594.4</ele>
      </trkpt>
      <trkpt lat="47.702967" lon="14.071355">
        <ele>1599.1</ele>
      </trkpt>
      <trkpt lat="47.702916" lon="14.071263">
        <ele>1599.1</ele>
      </trkpt>
      <trkpt lat="47.70279" lon="14.071187">
        <ele>1597.6</ele>
      </trkpt>
      <trkpt lat="47.702707" lon="14.071144">
        <ele>1596.6</ele>
      </trkpt>
      <trkpt lat="47.702603" lon="14.071042">
        <ele>1595.0</ele>
      </trkpt>
      <trkpt lat="47.702502" lon="14.070876">
        <ele>1596.4</ele>
      </trkpt>
      <trkpt lat="47.702339" lon="14.070619">
        <ele>1600.0</ele>
      </trkpt>
      <trkpt lat="47.702212" lon="14.070384">
        <ele>1604.9</ele>
      </trkpt>
      <trkpt lat="47.702165" lon="14.070203">
        <ele>1611.0</ele>
      </trkpt>
      <trkpt lat="47.702132" lon="14.070144">
        <ele>1613.0</ele>
      </trkpt>
      <trkpt lat="47.701978" lon="14.069995">
        <ele>1618.0</ele>
      </trkpt>
      <trkpt lat="47.701793" lon="14.069746">
        <ele>1628.2</ele>
      </trkpt>
      <trkpt lat="47.701771" lon="14.069728">
        <ele>1629.1</ele>
      </trkpt>
      <trkpt lat="47.701673" lon="14.069635">
        <ele>1635.8</ele>
      </trkpt>
      <trkpt lat="47.701622" lon="14.069587">
        <ele>1640.1</ele>
      </trkpt>
      <trkpt lat="47.701577" lon="14.069434">
        <ele>1651.4</ele>
      </trkpt>
      <trkpt lat="47.70159" lon="14.06935">
        <ele>1656.1</ele>
      </trkpt>
      <trkpt lat="47.701634" lon="14.069329">
        <ele>1655.4</ele>
      </trkpt>
      <trkpt lat="47.701687" lon="14.069368">
        <ele>1650.6</ele>
      </trkpt>
      <trkpt lat="47.701704" lon="14.069397">
        <ele>1648.1</ele>
      </trkpt>
      <trkpt lat="47.701778" lon="14.069499">
        <ele>1639.9</ele>
      </trkpt>
      <trkpt lat="47.701814" lon="14.069497">
        <ele>1639.2</ele>
      </trkpt>
      <trkpt lat="47.701858" lon="14.069429">
        <ele>1641.8</ele>
      </trkpt>
      <trkpt lat="47.70189" lon="14.06931">
        <ele>1647.1</ele>
      </trkpt>
      <trkpt lat="47.701914" lon="14.069171">
        <ele>1654.3</ele>
      </trkpt>
      <trkpt lat="47.701935" lon="14.069046">
        <ele>1661.2</ele>
      </trkpt>
      <trkpt lat="47.701917" lon="14.068933">
        <ele>1666.5</ele>
      </trkpt>
      <trkpt lat="47.701875" lon="14.068834">
        <ele>1671.4</ele>
      </trkpt>
      <trkpt lat="47.701832" lon="14.068736">
        <ele>1676.5</ele>
      </trkpt>
      <trkpt lat="47.701777" lon="14.068609">
        <ele>1681.6</ele>
      </trkpt>
      <trkpt lat="47.701751" lon="14.06855">
        <ele>1684.0</ele>
      </trkpt>
      <trkpt lat="47.701717" lon="14.06854">
        <ele>1684.4</ele>
      </trkpt>
      <trkpt lat="47.70149" lon="14.068584">
        <ele>1682.6</ele>
      </trkpt>
      <trkpt lat="47.701313" lon="14.068665">
        <ele>1684.4</ele>
      </trkpt>
      <trkpt lat="47.701197" lon="14.068718">
        <ele>1685.2</ele>
      </trkpt>
      <trkpt lat="47.701047" lon="14.068716">
        <ele>1685.1</ele>
      </trkpt>
      <trkpt lat="47.70102" lon="14.068666">
        <ele>1686.5</ele>
      </trkpt>
      <trkpt lat="47.700908" lon="14.068461">
        <ele>1691.7</ele>
      </trkpt>
      <trkpt lat="47.700872" lon="14.06811">
        <ele>1695.0</ele>
      </trkpt>
      <trkpt lat="47.700873" lon="14.067655">
        <ele>1699.6</ele>
      </trkpt>
      <trkpt lat="47.700874" lon="14.067239">
        <ele>1714.6</ele>
      </trkpt>
      <trkpt lat="47.700916" lon="14.066982">
        <ele>1722.4</ele>
      </trkpt>
      <trkpt lat="47.700937" lon="14.066501">
        <ele>1722.9</ele>
      </trkpt>
      <trkpt lat="47.700959" lon="14.06602">
        <ele>1732.7</ele>
      </trkpt>
      <trkpt lat="47.70098" lon="14.065538">
        <ele>1749.7</ele>
      </trkpt>
      <trkpt lat="47.701054" lon="14.065135">
        <ele>1768.4</ele>
      </trkpt>
      <trkpt lat="47.701128" lon="14.064732">
        <ele>1767.9</ele>
      </trkpt>
      <trkpt lat="47.701202" lon="14.064329">
        <ele>1769.5</ele>
      </trkpt>
      <trkpt lat="47.701275" lon="14.063925">
        <ele>1767.1</ele>
      </trkpt>
      <trkpt lat="47.701301" lon="14.063487">
        <ele>1771.2</ele>
      </trkpt>
      <trkpt lat="47.701327" lon="14.063049">
        <ele>1781.8</ele>
      </trkpt>
      <trkpt lat="47.701278" lon="14.062531">
        <ele>1785.0</ele>
      </trkpt>
      <trkpt lat="47.70125" lon="14.061963">
        <ele>1777.2</ele>
      </trkpt>
      <trkpt lat="47.701262" lon="14.061432">
        <ele>1768.6</ele>
      </trkpt>
      <trkpt lat="47.701274" lon="14.060901">
        <ele>1773.3</ele>
      </trkpt>
      <trkpt lat="47.70126" lon="14.06041">
        <ele>1785.7</ele>
      </trkpt>
      <trkpt lat="47.701244" lon="14.059935">
        <ele>1789.8</ele>
      </trkpt>
      <trkpt lat="47.701229" lon="14.05946">
        <ele>1802.0</ele>
      </trkpt>
      <trkpt lat="47.701213" lon="14.058984">
        <ele>1812.4</ele>
      </trkpt>
      <trkpt lat="47.701198" lon="14.058509">
        <ele>1813.2</ele>
      </trkpt>
      <trkpt lat="47.701178" lon="14.058184">
        <ele>1814.5</ele>
      </trkpt>
      <trkpt lat="47.701188" lon="14.058033">
        <ele>1813.7</ele>
      </trkpt>
      <trkpt lat="47.701229" lon="14.057712">
        <ele>1809.1</ele>
      </trkpt>
      <trkpt lat="47.701232" lon="14.057579">
        <ele>1810.2</ele>
      </trkpt>
      <trkpt lat="47.701248" lon="14.057212">
        <ele>1818.4</ele>
      </trkpt>
      <trkpt lat="47.70124" lon="14.056671">
        <ele>1817.4</ele>
      </trkpt>
      <trkpt lat="47.701232" lon="14.056131">
        <ele>1814.0</ele>
      </trkpt>
      <trkpt lat="47.701214" lon="14.055951">
        <ele>1813.2</ele>
      </trkpt>
      <trkpt lat="47.701178" lon="14.055841">
        <ele>1813.9</ele>
      </trkpt>
      <trkpt lat="47.701065" lon="14.055454">
        <ele>1815.3</ele>
      </trkpt>
      <trkpt lat="47.701064" lon="14.055332">
        <ele>1816.7</ele>
      </trkpt>
      <trkpt lat="47.70111" lon="14.055151">
        <ele>1817.1</ele>
      </trkpt>
      <trkpt lat="47.70125" lon="14.054753">
        <ele>1810.5</ele>
      </trkpt>
      <trkpt lat="47.70139" lon="14.054355">
        <ele>1813.7</ele>
      </trkpt>
      <trkpt lat="47.701455" lon="14.054133">
        <ele>1814.5</ele>
      </trkpt>
      <trkpt lat="47.701507" lon="14.053841">
        <ele>1815.7</ele>
      </trkpt>
      <trkpt lat="47.701584" lon="14.053372">
        <ele>1816.7</ele>
      </trkpt>
      <trkpt lat="47.70166" lon="14.052902">
        <ele>1823.1</ele>
      </trkpt>
      <trkpt lat="47.701737" lon="14.052645">
        <ele>1827.9</ele>
      </trkpt>
      <trkpt lat="47.701799" lon="14.052568">
        <ele>1826.4</ele>
      </trkpt>
      <trkpt lat="47.701881" lon="14.052538">
        <ele>1823.6</ele>
      </trkpt>
      <trkpt lat="47.702041" lon="14.052477">
        <ele>1825.6</ele>
      </trkpt>
      <trkpt lat="47.702212" lon="14.052197">
        <ele>1834.7</ele>
      </trkpt>
      <trkpt lat="47.702382" lon="14.051918">
        <ele>1843.0</ele>
      </trkpt>
      <trkpt lat="47.702482" lon="14.051678">
        <ele>1850.5</ele>
      </trkpt>
      <trkpt lat="47.702476" lon="14.051405">
        <ele>1855.9</ele>
      </trkpt>
      <trkpt lat="47.702459" lon="14.051116">
        <ele>1853.3</ele>
      </trkpt>
      <trkpt lat="47.702556" lon="14.050656">
        <ele>1849.5</ele>
      </trkpt>
      <trkpt lat="47.702591" lon="14.050242">
        <ele>1852.8</ele>
      </trkpt>
      <trkpt lat="47.702626" lon="14.049828">
        <ele>1855.7</ele>
      </trkpt>
      <trkpt lat="47.702639" lon="14.049785">
        <ele>1855.9</ele>
      </trkpt>
      <trkpt lat="47.702631" lon="14.049324">
        <ele>1851.8</ele>
      </trkpt>
      <trkpt lat="47.702622" lon="14.048862">
        <ele>1859.7</ele>
      </trkpt>
      <trkpt lat="47.702607" lon="14.048312">
        <ele>1866.5</ele>
      </trkpt>
      <trkpt lat="47.702595" lon="14.048079">
        <ele>1869.2</ele>
      </trkpt>
      <trkpt lat="47.702621" lon="14.047629">
        <ele>1872.5</ele>
      </trkpt>
      <trkpt lat="47.702647" lon="14.047179">
        <ele>1871.0</ele>
      </trkpt>
      <trkpt lat="47.702673" lon="14.046729">
        <ele>1863.0</ele>
      </trkpt>
      <trkpt lat="47.70273" lon="14.046115">
        <ele>1862.1</ele>
      </trkpt>
      <trkpt lat="47.702743" lon="14.045712">
        <ele>1861.6</ele>
      </trkpt>
      <trkpt lat="47.702808" lon="14.045191">
        <ele>1868.9</ele>
      </trkpt>
      <trkpt lat="47.702873" lon="14.044671">
        <ele>1871.0</ele>
      </trkpt>
      <trkpt lat="47.702938" lon="14.04415">
        <ele>1876.8</ele>
      </trkpt>
      <trkpt lat="47.703003" lon="14.04363">
        <ele>1898.4</ele>
      </trkpt>
      <trkpt lat="47.703067" lon="14.043221">
        <ele>1904.7</ele>
      </trkpt>
      <trkpt lat="47.703132" lon="14.042813">
        <ele>1905.2</ele>
      </trkpt>
      <trkpt lat="47.703311" lon="14.042291">
        <ele>1914.1</ele>
      </trkpt>
      <trkpt lat="47.703476" lon="14.042001">
        <ele>1920.2</ele>
      </trkpt>
      <trkpt lat="47.703737" lon="14.041738">
        <ele>1930.5</ele>
      </trkpt>
      <trkpt lat="47.703998" lon="14.041475">
        <ele>1945.8</ele>
      </trkpt>
      <trkpt lat="47.704075" lon="14.041172">
        <ele>1947.9</ele>
      </trkpt>
      <trkpt lat="47.704214" lon="14.040627">
        <ele>1958.6</ele>
      </trkpt>
      <trkpt lat="47.704251" lon="14.040525">
        <ele>1963.5</ele>
      </trkpt>
      <trkpt lat="47.704288" lon="14.040424">
        <ele>1968.0</ele>
      </trkpt>
      <trkpt lat="47.704414" lon="14.040323">
        <ele>1975.2</ele>
      </trkpt>
      <trkpt lat="47.70439" lon="14.039903">
        <ele>1982.8</ele>
      </trkpt>
      <trkpt lat="47.704366" lon="14.039482">
        <ele>1993.6</ele>
      </trkpt>
      <trkpt lat="47.704321" lon="14.039074">
        <ele>2002.1</ele>
      </trkpt>
      <trkpt lat="47.704276" lon="14.038665">
        <ele>2009.2</ele>
      </trkpt>
      <trkpt lat="47.704208" lon="14.03819">
        <ele>2023.8</ele>
      </trkpt>
      <trkpt lat="47.704139" lon="14.037715">
        <ele>2038.0</ele>
      </trkpt>
      <trkpt lat="47.704071" lon="14.037241">
        <ele>2039.2</ele>
      </trkpt>
      <trkpt lat="47.703995" lon="14.036904">
        <ele>2036.9</ele>
      </trkpt>
      <trkpt lat="47.703855" lon="14.036367">
        <ele>2046.6</ele>
      </trkpt>
      <trkpt lat="47.703715" lon="14.035831">
        <ele>2046.3</ele>
      </trkpt>
      <trkpt lat="47.703576" lon="14.035294">
        <ele>2043.7</ele>
      </trkpt>
      <trkpt lat="47.703436" lon="14.034757">
        <ele>2046.2</ele>
      </trkpt>
      <trkpt lat="47.703386" lon="14.034392">
        <ele>2050.8</ele>
      </trkpt>
      <trkpt lat="47.703336" lon="14.034027">
        <ele>2052.6</ele>
      </trkpt>
      <trkpt lat="47.703285" lon="14.033661">
        <ele>2051.2</ele>
      </trkpt>
      <trkpt lat="47.703235" lon="14.033296">
        <ele>2054.2</ele>
      </trkpt>
      <trkpt lat="47.703266" lon="14.032923">
        <ele>2060.4</ele>
      </trkpt>
      <trkpt lat="47.703221" lon="14.032436">
        <ele>2055.5</ele>
      </trkpt>
      <trkpt lat="47.703061" lon="14.032274">
        <ele>2059.0</ele>
      </trkpt>
      <trkpt lat="47.70281" lon="14.032126">
        <ele>2061.0</ele>
      </trkpt>
      <trkpt lat="47.702682" lon="14.032059">
        <ele>2060.8</ele>
      </trkpt>
      <trkpt lat="47.702629" lon="14.032029">
        <ele>2061.1</ele>
      </trkpt>
      <trkpt lat="47.702413" lon="14.031986">
        <ele>2064.9</ele>
      </trkpt>
      <trkpt lat="47.702449" lon="14.031954">
        <ele>2063.2</ele>
      </trkpt>
      <trkpt lat="47.70246" lon="14.031919">
        <ele>2062.4</ele>
      </trkpt>
      <trkpt lat="47.702515" lon="14.031792">
        <ele>2058.9</ele>
      </trkpt>
      <trkpt lat="47.702607" lon="14.031515">
        <ele>2051.8</ele>
      </trkpt>
      <trkpt lat="47.702626" lon="14.031281">
        <ele>2047.7</ele>
      </trkpt>
      <trkpt lat="47.702838" lon="14.030801">
        <ele>2031.4</ele>
      </trkpt>
      <trkpt lat="47.703002" lon="14.030489">
        <ele>2020.7</ele>
      </trkpt>
      <trkpt lat="47.703167" lon="14.030177">
        <ele>2011.1</ele>
      </trkpt>
      <trkpt lat="47.703274" lon="14.029812">
        <ele>2002.9</ele>
      </trkpt>
      <trkpt lat="47.70338" lon="14.029447">
        <ele>1998.2</ele>
      </trkpt>
      <trkpt lat="47.703468" lon="14.029044">
        <ele>1992.4</ele>
      </trkpt>
      <trkpt lat="47.703556" lon="14.02864">
        <ele>1986.7</ele>
      </trkpt>
      <trkpt lat="47.703634" lon="14.028221">
        <ele>1984.1</ele>
      </trkpt>
      <trkpt lat="47.70371" lon="14.027819">
        <ele>1983.5</ele>
      </trkpt>
      <trkpt lat="47.703785" lon="14.027417">
        <ele>1986.0</ele>
      </trkpt>
      <trkpt lat="47.703868" lon="14.026915">
        <ele>1975.5</ele>
      </trkpt>
      <trkpt lat="47.704101" lon="14.026553">
        <ele>1986.0</ele>
      </trkpt>
      <trkpt lat="47.704333" lon="14.026191">
        <ele>1988.7</ele>
      </trkpt>
      <trkpt lat="47.70442" lon="14.025942">
        <ele>1984.3</ele>
      </trkpt>
      <trkpt lat="47.704507" lon="14.025693">
        <ele>1975.3</ele>
      </trkpt>
      <trkpt lat="47.70469" lon="14.02535">
        <ele>1975.6</ele>
      </trkpt>
      <trkpt lat="47.704873" lon="14.025007">
        <ele>1982.1</ele>
      </trkpt>
      <trkpt lat="47.704975" lon="14.024785">
        <ele>1981.2</ele>
      </trkpt>
      <trkpt lat="47.705064" lon="14.024573">
        <ele>1973.3</ele>
      </trkpt>
      <trkpt lat="47.705153" lon="14.024362">
        <ele>1978.2</ele>
      </trkpt>
      <trkpt lat="47.705318" lon="14.023825">
        <ele>1984.1</ele>
      </trkpt>
      <trkpt lat="47.705482" lon="14.023288">
        <ele>1987.6</ele>
      </trkpt>
      <trkpt lat="47.705647" lon="14.022752">
        <ele>1982.9</ele>
      </trkpt>
      <trkpt lat="47.705812" lon="14.022215">
        <ele>1995.2</ele>
      </trkpt>
      <trkpt lat="47.705705" lon="14.021807">
        <ele>1982.5</ele>
      </trkpt>
      <trkpt lat="47.705598" lon="14.021398">
        <ele>1980.2</ele>
      </trkpt>
      <trkpt lat="47.705386" lon="14.021125">
        <ele>1975.9</ele>
      </trkpt>
      <trkpt lat="47.705175" lon="14.020852">
        <ele>1971.9</ele>
      </trkpt>
      <trkpt lat="47.704966" lon="14.020712">
        <ele>1965.0</ele>
      </trkpt>
      <trkpt lat="47.704758" lon="14.020573">
        <ele>1963.7</ele>
      </trkpt>
      <trkpt lat="47.704694" lon="14.020484">
        <ele>1964.0</ele>
      </trkpt>
      <trkpt lat="47.70463" lon="14.020396">
        <ele>1964.6</ele>
      </trkpt>
      <trkpt lat="47.704576" lon="14.020157">
        <ele>1968.2</ele>
      </trkpt>
      <trkpt lat="47.704551" lon="14.019976">
        <ele>1972.4</ele>
      </trkpt>
      <trkpt lat="47.704455" lon="14.019766">
        <ele>1976.2</ele>
      </trkpt>
      <trkpt lat="47.70436" lon="14.019556">
        <ele>1980.9</ele>
      </trkpt>
      <trkpt lat="47.704116" lon="14.019199">
        <ele>1995.4</ele>
      </trkpt>
      <trkpt lat="47.703873" lon="14.018843">
        <ele>2017.3</ele>
      </trkpt>
      <trkpt lat="47.703851" lon="14.018812">
        <ele>2018.4</ele>
      </trkpt>
      <trkpt lat="47.703808" lon="14.018628">
        <ele>2019.9</ele>
      </trkpt>
      <trkpt lat="47.703766" lon="14.018444">
        <ele>2022.4</ele>
      </trkpt>
      <trkpt lat="47.703697" lon="14.017895">
        <ele>2020.3</ele>
      </trkpt>
      <trkpt lat="47.703628" lon="14.017345">
        <ele>2022.3</ele>
      </trkpt>
      <trkpt lat="47.703559" lon="14.016795">
        <ele>2012.2</ele>
      </trkpt>
      <trkpt lat="47.70349" lon="14.016245">
        <ele>2008.6</ele>
      </trkpt>
      <trkpt lat="47.703391" lon="14.015909">
        <ele>2008.7</ele>
      </trkpt>
      <trkpt lat="47.703292" lon="14.015572">
        <ele>2006.3</ele>
      </trkpt>
      <trkpt lat="47.703044" lon="14.0152">
        <ele>1999.8</ele>
      </trkpt>
      <trkpt lat="47.702847" lon="14.014792">
        <ele>1978.5</ele>
      </trkpt>
      <trkpt lat="47.70269" lon="14.014541">
        <ele>1968.9</ele>
      </trkpt>
      <trkpt lat="47.702533" lon="14.014291">
        <ele>1961.2</ele>
      </trkpt>
      <trkpt lat="47.70235" lon="14.013918">
        <ele>1947.3</ele>
      </trkpt>
      <trkpt lat="47.702167" lon="14.013546">
        <ele>1936.2</ele>
      </trkpt>
      <trkpt lat="47.701984" lon="14.013173">
        <ele>1933.8</ele>
      </trkpt>
      <trkpt lat="47.701801" lon="14.012801">
        <ele>1930.9</ele>
      </trkpt>
      <trkpt lat="47.701617" lon="14.012428">
        <ele>1926.7</ele>
      </trkpt>
      <trkpt lat="47.701434" lon="14.012056">
        <ele>1921.9</ele>
      </trkpt>
      <trkpt lat="47.701374" lon="14.011662">
        <ele>1920.5</ele>
      </trkpt>
      <trkpt lat="47.701259" lon="14.011148">
        <ele>1908.1</ele>
      </trkpt>
      <trkpt lat="47.701143" lon="14.010635">
        <ele>1902.8</ele>
      </trkpt>
      <trkpt lat="47.701077" lon="14.01034">
        <ele>1900.5</ele>
      </trkpt>
      <trkpt lat="47.700768" lon="14.010001">
        <ele>1899.4</ele>
      </trkpt>
      <trkpt lat="47.700587" lon="14.009801">
        <ele>1897.4</ele>
      </trkpt>
      <trkpt lat="47.700493" lon="14.009635">
        <ele>1892.2</ele>
      </trkpt>
      <trkpt lat="47.700398" lon="14.009469">
        <ele>1887.3</ele>
      </trkpt>
      <trkpt lat="47.700196" lon="14.009163">
        <ele>1885.1</ele>
      </trkpt>
      <trkpt lat="47.699994" lon="14.008856">
        <ele>1880.8</ele>
      </trkpt>
      <trkpt lat="47.699855" lon="14.008682">
        <ele>1879.8</ele>
      </trkpt>
      <trkpt lat="47.699715" lon="14.008508">
        <ele>1879.9</ele>
      </trkpt>
      <trkpt lat="47.699558" lon="14.008246">
        <ele>1882.0</ele>
      </trkpt>
      <trkpt lat="47.699408" lon="14.008055">
        <ele>1879.9</ele>
      </trkpt>
      <trkpt lat="47.699101" lon="14.007632">
        <ele>1864.5</ele>
      </trkpt>
      <trkpt lat="47.698793" lon="14.007208">
        <ele>1859.4</ele>
      </trkpt>
      <trkpt lat="47.698486" lon="14.006785">
        <ele>1854.0</ele>
      </trkpt>
      <trkpt lat="47.698179" lon="14.006362">
        <ele>1852.8</ele>
      </trkpt>
      <trkpt lat="47.69791" lon="14.006058">
        <ele>1859.8</ele>
      </trkpt>
      <trkpt lat="47.697641" lon="14.005754">
        <ele>1868.9</ele>
      </trkpt>
      <trkpt lat="47.697372" lon="14.005451">
        <ele>1872.9</ele>
      </trkpt>
      <trkpt lat="47.697103" lon="14.005147">
        <ele>1872.9</ele>
      </trkpt>
      <trkpt lat="47.696858" lon="14.004773">
        <ele>1875.6</ele>
      </trkpt>
      <trkpt lat="47.696702" lon="14.004644">
        <ele>1877.6</ele>
      </trkpt>
      <trkpt lat="47.696545" lon="14.004515">
        <ele>1878.8</ele>
      </trkpt>
      <trkpt lat="47.696381" lon="14.00446">
        <ele>1880.0</ele>
      </trkpt>
      <trkpt lat="47.696083" lon="14.004295">
        <ele>1883.6</ele>
      </trkpt>
      <trkpt lat="47.695784" lon="14.00413">
        <ele>1892.5</ele>
      </trkpt>
      <trkpt lat="47.695621" lon="14.003973">
        <ele>1895.1</ele>
      </trkpt>
      <trkpt lat="47.695343" lon="14.003761">
        <ele>1900.5</ele>
      </trkpt>
      <trkpt lat="47.695066" lon="14.003549">
        <ele>1906.7</ele>
      </trkpt>
      <trkpt lat="47.694769" lon="14.003103">
        <ele>1916.5</ele>
      </trkpt>
      <trkpt lat="47.694471" lon="14.002658">
        <ele>1925.4</ele>
      </trkpt>
      <trkpt lat="47.694375" lon="14.002495">
        <ele>1929.3</ele>
      </trkpt>
      <trkpt lat="47.694136" lon="14.002123">
        <ele>1933.9</ele>
      </trkpt>
      <trkpt lat="47.693897" lon="14.001751">
        <ele>1937.2</ele>
      </trkpt>
      <trkpt lat="47.693698" lon="14.001458">
        <ele>1939.9</ele>
      </trkpt>
      <trkpt lat="47.693565" lon="14.001163">
        <ele>1938.3</ele>
      </trkpt>
      <trkpt lat="47.693432" lon="14.000868">
        <ele>1939.6</ele>
      </trkpt>
      <trkpt lat="47.693182" lon="14.00041">
        <ele>1955.0</ele>
      </trkpt>
      <trkpt lat="47.692932" lon="13.999953">
        <ele>1954.5</ele>
      </trkpt>
      <trkpt lat="47.692758" lon="13.999633">
        <ele>1952.1</ele>
      </trkpt>
      <trkpt lat="47.692753" lon="13.999625">
        <ele>1952.0</ele>
      </trkpt>
      <trkpt lat="47.692574" lon="13.999263">
        <ele>1951.7</ele>
      </trkpt>
      <trkpt lat="47.692396" lon="13.998901">
        <ele>1958.1</ele>
      </trkpt>
      <trkpt lat="47.692217" lon="13.998539">
        <ele>1963.3</ele>
      </trkpt>
      <trkpt lat="47.692038" lon="13.998176">
        <ele>1966.8</ele>
      </trkpt>
      <trkpt lat="47.691859" lon="13.997814">
        <ele>1969.1</ele>
      </trkpt>
      <trkpt lat="47.69168" lon="13.997452">
        <ele>1974.8</ele>
      </trkpt>
      <trkpt lat="47.691561" lon="13.997097">
        <ele>1978.4</ele>
      </trkpt>
      <trkpt lat="47.691441" lon="13.996742">
        <ele>1978.4</ele>
      </trkpt>
      <trkpt lat="47.691289" lon="13.996375">
        <ele>1974.7</ele>
      </trkpt>
      <trkpt lat="47.691136" lon="13.996007">
        <ele>1975.7</ele>
      </trkpt>
      <trkpt lat="47.69105" lon="13.995433">
        <ele>1985.4</ele>
      </trkpt>
      <trkpt lat="47.690964" lon="13.99486">
        <ele>1983.9</ele>
      </trkpt>
      <trkpt lat="47.690877" lon="13.994286">
        <ele>1995.5</ele>
      </trkpt>
      <trkpt lat="47.690684" lon="13.993792">
        <ele>1997.0</ele>
      </trkpt>
      <trkpt lat="47.69056" lon="13.99352">
        <ele>1998.8</ele>
      </trkpt>
      <trkpt lat="47.690379" lon="13.993145">
        <ele>1995.9</ele>
      </trkpt>
      <trkpt lat="47.690197" lon="13.99277">
        <ele>1998.9</ele>
      </trkpt>
      <trkpt lat="47.690016" lon="13.992395">
        <ele>1997.5</ele>
      </trkpt>
      <trkpt lat="47.689834" lon="13.99202">
        <ele>1996.8</ele>
      </trkpt>
      <trkpt lat="47.689544" lon="13.991557">
        <ele>1989.8</ele>
      </trkpt>
      <trkpt lat="47.689369" lon="13.991394">
        <ele>1989.1</ele>
      </trkpt>
      <trkpt lat="47.689099" lon="13.990908">
        <ele>1982.4</ele>
      </trkpt>
      <trkpt lat="47.68883" lon="13.990421">
        <ele>1972.3</ele>
      </trkpt>
      <trkpt lat="47.688846" lon="13.990333">
        <ele>1968.6</ele>
      </trkpt>
      <trkpt lat="47.688862" lon="13.990245">
        <ele>1964.3</ele>
      </trkpt>
      <trkpt lat="47.688916" lon="13.989963">
        <ele>1947.9</ele>
      </trkpt>
      <trkpt lat="47.688971" lon="13.989881">
        <ele>1943.1</ele>
      </trkpt>
      <trkpt lat="47.688986" lon="13.989802">
        <ele>1942.3</ele>
      </trkpt>
      <trkpt lat="47.689002" lon="13.989723">
        <ele>1942.0</ele>
      </trkpt>
      <trkpt lat="47.688983" lon="13.989243">
        <ele>1930.4</ele>
      </trkpt>
      <trkpt lat="47.688973" lon="13.989051">
        <ele>1925.1</ele>
      </trkpt>
      <trkpt lat="47.688954" lon="13.988781">
        <ele>1914.9</ele>
      </trkpt>
      <trkpt lat="47.688984" lon="13.988346">
        <ele>1896.0</ele>
      </trkpt>
      <trkpt lat="47.689014" lon="13.987911">
        <ele>1878.1</ele>
      </trkpt>
      <trkpt lat="47.68903" lon="13.987879">
        <ele>1876.4</ele>
      </trkpt>
      <trkpt lat="47.689047" lon="13.987848">
        <ele>1874.3</ele>
      </trkpt>
      <trkpt lat="47.689112" lon="13.987845">
        <ele>1870.2</ele>
      </trkpt>
      <trkpt lat="47.689211" lon="13.987833">
        <ele>1862.4</ele>
      </trkpt>
      <trkpt lat="47.689336" lon="13.987778">
        <ele>1858.5</ele>
      </trkpt>
      <trkpt lat="47.689525" lon="13.987665">
        <ele>1851.2</ele>
      </trkpt>
      <trkpt lat="47.689714" lon="13.987552">
        <ele>1841.7</ele>
      </trkpt>
      <trkpt lat="47.690027" lon="13.987136">
        <ele>1824.0</ele>
      </trkpt>
      <trkpt lat="47.69034" lon="13.98672">
        <ele>1799.4</ele>
      </trkpt>
      <trkpt lat="47.690315" lon="13.986606">
        <ele>1792.6</ele>
      </trkpt>
      <trkpt lat="47.69029" lon="13.986492">
        <ele>1789.8</ele>
      </trkpt>
      <trkpt lat="47.690188" lon="13.986015">
        <ele>1778.0</ele>
      </trkpt>
      <trkpt lat="47.690086" lon="13.985538">
        <ele>1759.9</ele>
      </trkpt>
      <trkpt lat="47.689939" lon="13.984979">
        <ele>1751.6</ele>
      </trkpt>
      <trkpt lat="47.689793" lon="13.984419">
        <ele>1740.4</ele>
      </trkpt>
      <trkpt lat="47.689646" lon="13.98386">
        <ele>1737.0</ele>
      </trkpt>
      <trkpt lat="47.689499" lon="13.983301">
        <ele>1726.8</ele>
      </trkpt>
      <trkpt lat="47.689522" lon="13.983108">
        <ele>1722.8</ele>
      </trkpt>
      <trkpt lat="47.689544" lon="13.982915">
        <ele>1718.2</ele>
      </trkpt>
      <trkpt lat="47.689595" lon="13.982528">
        <ele>1723.1</ele>
      </trkpt>
      <trkpt lat="47.689646" lon="13.982141">
        <ele>1715.5</ele>
      </trkpt>
      <trkpt lat="47.689696" lon="13.981754">
        <ele>1706.6</ele>
      </trkpt>
      <trkpt lat="47.689747" lon="13.981367">
        <ele>1700.7</ele>
      </trkpt>
      <trkpt lat="47.68975" lon="13.981073">
        <ele>1697.6</ele>
      </trkpt>
      <trkpt lat="47.689781" lon="13.98088">
        <ele>1694.0</ele>
      </trkpt>
      <trkpt lat="47.689949" lon="13.980413">
        <ele>1688.1</ele>
      </trkpt>
      <trkpt lat="47.690117" lon="13.979947">
        <ele>1684.3</ele>
      </trkpt>
      <trkpt lat="47.690217" lon="13.979572">
        <ele>1687.7</ele>
      </trkpt>
      <trkpt lat="47.690317" lon="13.979197">
        <ele>1689.1</ele>
      </trkpt>
      <trkpt lat="47.690287" lon="13.978998">
        <ele>1689.5</ele>
      </trkpt>
      <trkpt lat="47.690258" lon="13.978798">
        <ele>1692.7</ele>
      </trkpt>
      <trkpt lat="47.690157" lon="13.978401">
        <ele>1695.1</ele>
      </trkpt>
      <trkpt lat="47.690057" lon="13.978003">
        <ele>1692.7</ele>
      </trkpt>
      <trkpt lat="47.689964" lon="13.977515">
        <ele>1687.1</ele>
      </trkpt>
      <trkpt lat="47.689899" lon="13.977165">
        <ele>1685.1</ele>
      </trkpt>
      <trkpt lat="47.689834" lon="13.976815">
        <ele>1683.4</ele>
      </trkpt>
      <trkpt lat="47.68977" lon="13.976359">
        <ele>1680.6</ele>
      </trkpt>
      <trkpt lat="47.689706" lon="13.975903">
        <ele>1683.0</ele>
      </trkpt>
      <trkpt lat="47.689642" lon="13.975446">
        <ele>1682.3</ele>
      </trkpt>
      <trkpt lat="47.689617" lon="13.97508">
        <ele>1679.1</ele>
      </trkpt>
      <trkpt lat="47.689582" lon="13.974805">
        <ele>1682.8</ele>
      </trkpt>
      <trkpt lat="47.689552" lon="13.974377">
        <ele>1680.4</ele>
      </trkpt>
      <trkpt lat="47.689482" lon="13.974006">
        <ele>1681.8</ele>
      </trkpt>
      <trkpt lat="47.689393" lon="13.973729">
        <ele>1684.1</ele>
      </trkpt>
      <trkpt lat="47.689199" lon="13.973386">
        <ele>1685.8</ele>
      </trkpt>
      <trkpt lat="47.689004" lon="13.973043">
        <ele>1688.5</ele>
      </trkpt>
      <trkpt lat="47.688809" lon="13.972617">
        <ele>1693.5</ele>
      </trkpt>
      <trkpt lat="47.688614" lon="13.972191">
        <ele>1691.6</ele>
      </trkpt>
      <trkpt lat="47.688419" lon="13.971655">
        <ele>1686.7</ele>
      </trkpt>
      <trkpt lat="47.688224" lon="13.971119">
        <ele>1676.0</ele>
      </trkpt>
      <trkpt lat="47.688144" lon="13.970828">
        <ele>1667.3</ele>
      </trkpt>
      <trkpt lat="47.688102" lon="13.970759">
        <ele>1666.5</ele>
      </trkpt>
      <trkpt lat="47.687911" lon="13.970534">
        <ele>1667.5</ele>
      </trkpt>
      <trkpt lat="47.687775" lon="13.970374">
        <ele>1672.1</ele>
      </trkpt>
      <trkpt lat="47.687727" lon="13.97027">
        <ele>1672.8</ele>
      </trkpt>
      <trkpt lat="47.687685" lon="13.970157">
        <ele>1672.5</ele>
      </trkpt>
      <trkpt lat="47.687684" lon="13.970066">
        <ele>1670.7</ele>
      </trkpt>
      <trkpt lat="47.687692" lon="13.969595">
        <ele>1665.5</ele>
      </trkpt>
      <trkpt lat="47.6877" lon="13.969124">
        <ele>1656.9</ele>
      </trkpt>
      <trkpt lat="47.687687" lon="13.968745">
        <ele>1652.2</ele>
      </trkpt>
      <trkpt lat="47.687655" lon="13.968497">
        <ele>1650.7</ele>
      </trkpt>
      <trkpt lat="47.687572" lon="13.968106">
        <ele>1645.6</ele>
      </trkpt>
      <trkpt lat="47.687458" lon="13.967673">
        <ele>1643.3</ele>
      </trkpt>
      <trkpt lat="47.687344" lon="13.967239">
        <ele>1641.4</ele>
      </trkpt>
      <trkpt lat="47.687305" lon="13.967161">
        <ele>1640.1</ele>
      </trkpt>
      <trkpt lat="47.687192" lon="13.967032">
        <ele>1639.4</ele>
      </trkpt>
      <trkpt lat="47.687171" lon="13.966986">
        <ele>1639.3</ele>
      </trkpt>
      <trkpt lat="47.687158" lon="13.96692">
        <ele>1639.5</ele>
      </trkpt>
      <trkpt lat="47.68706" lon="13.966578">
        <ele>1636.4</ele>
      </trkpt>
      <trkpt lat="47.687047" lon="13.966531">
        <ele>1635.7</ele>
      </trkpt>
    </trkseg>
  </trk>
</gpx>