<?xml version="1.0" encoding="UTF-8" standalone="yes"?>
<gpx version="1.1" creator="outdooractive - http://www.outdooractive.com" xmlns="http://www.topografix.com/GPX/1/1" xmlns:oa="http://www.outdooractive.com/GPX/Extensions/1" xmlns:xsi="http://www.w3.org/2001/XMLSchema-instance" xsi:schemaLocation="http://www.topografix.com/GPX/1/1 http://www.topografix.com/GPX/1/1/gpx.xsd http://www.outdooractive.com/GPX/Extensions/1 https://www.outdooractive.com/schema/gpx_extensions.xsd">
  <metadata>
    <name>Kaisertour: Von Ebbs über den Musikantensteig zur Vorderkaiserfeldenhütte</name>
    <author>
      <name>DAV Sektion Oberland - DAV Sektion Oberland</name>
    </author>
    <link href="https://www.outdooractive.com/r/23685507"/>
    <time>2026-05-15T09:08:55.181Z</time>
    <extensions>
      <oa:oaCategory>mountaineering</oa:oaCategory>
    </extensions>
  </metadata>
  <trk>
    <name>Kaisertour: Von Ebbs über den Musikantensteig zur Vorderkaiserfeldenhütte</name>
    <desc>Steiler Anstieg von Ebbs über den Musikantensteig zur Vorderkaiserfeldenhütte und für Motivierte weiter zur Naunspitze</desc>
    <type>mountaineering</type>
    <trkseg>
      <trkpt lat="47.628591" lon="12.242368">
        <ele>682.3</ele>
        <name>47.628591,12.242368</name>
        <extensions>
          <oa:Extension>
            <oa:mapZoom>14</oa:mapZoom>
          </oa:Extension>
        </extensions>
      </trkpt>
      <trkpt lat="47.628605" lon="12.242228">
        <ele>680.7</ele>
      </trkpt>
      <trkpt lat="47.628646" lon="12.241906">
        <ele>676.9</ele>
      </trkpt>
      <trkpt lat="47.62871" lon="12.241528">
        <ele>672.4</ele>
      </trkpt>
      <trkpt lat="47.62872" lon="12.241446">
        <ele>671.5</ele>
      </trkpt>
      <trkpt lat="47.628743" lon="12.241259">
        <ele>669.6</ele>
      </trkpt>
      <trkpt lat="47.628741" lon="12.241018">
        <ele>667.0</ele>
      </trkpt>
      <trkpt lat="47.628711" lon="12.240724">
        <ele>663.8</ele>
      </trkpt>
      <trkpt lat="47.628656" lon="12.240431">
        <ele>660.5</ele>
      </trkpt>
      <trkpt lat="47.628613" lon="12.240235">
        <ele>658.2</ele>
      </trkpt>
      <trkpt lat="47.628517" lon="12.239994">
        <ele>655.3</ele>
      </trkpt>
      <trkpt lat="47.628425" lon="12.239869">
        <ele>653.6</ele>
      </trkpt>
      <trkpt lat="47.628335" lon="12.239806">
        <ele>652.3</ele>
      </trkpt>
      <trkpt lat="47.628348" lon="12.239876">
        <ele>652.7</ele>
      </trkpt>
      <trkpt lat="47.62835" lon="12.239927">
        <ele>652.9</ele>
      </trkpt>
      <trkpt lat="47.628334" lon="12.240029">
        <ele>652.5</ele>
      </trkpt>
      <trkpt lat="47.628318" lon="12.240089">
        <ele>652.5</ele>
      </trkpt>
      <trkpt lat="47.628254" lon="12.240161">
        <ele>652.8</ele>
      </trkpt>
      <trkpt lat="47.628175" lon="12.240166">
        <ele>653.1</ele>
      </trkpt>
      <trkpt lat="47.628016" lon="12.240157">
        <ele>654.2</ele>
      </trkpt>
      <trkpt lat="47.627858" lon="12.240181">
        <ele>654.9</ele>
      </trkpt>
      <trkpt lat="47.627811" lon="12.240195">
        <ele>655.0</ele>
      </trkpt>
      <trkpt lat="47.627751" lon="12.240226">
        <ele>655.1</ele>
      </trkpt>
      <trkpt lat="47.627697" lon="12.240273">
        <ele>655.3</ele>
      </trkpt>
      <trkpt lat="47.627625" lon="12.240358">
        <ele>655.7</ele>
      </trkpt>
      <trkpt lat="47.627547" lon="12.240457">
        <ele>656.2</ele>
      </trkpt>
      <trkpt lat="47.627469" lon="12.240545">
        <ele>657.0</ele>
      </trkpt>
      <trkpt lat="47.627376" lon="12.240653">
        <ele>658.4</ele>
      </trkpt>
      <trkpt lat="47.627308" lon="12.240724">
        <ele>659.5</ele>
      </trkpt>
      <trkpt lat="47.627247" lon="12.240802">
        <ele>660.6</ele>
      </trkpt>
      <trkpt lat="47.627215" lon="12.240874">
        <ele>661.4</ele>
      </trkpt>
      <trkpt lat="47.627181" lon="12.241011">
        <ele>662.4</ele>
      </trkpt>
      <trkpt lat="47.627158" lon="12.241118">
        <ele>663.2</ele>
      </trkpt>
      <trkpt lat="47.627121" lon="12.241205">
        <ele>663.8</ele>
      </trkpt>
      <trkpt lat="47.627069" lon="12.241281">
        <ele>664.1</ele>
      </trkpt>
      <trkpt lat="47.627006" lon="12.241365">
        <ele>664.1</ele>
      </trkpt>
      <trkpt lat="47.626942" lon="12.241424">
        <ele>664.4</ele>
      </trkpt>
      <trkpt lat="47.626867" lon="12.241441">
        <ele>663.0</ele>
      </trkpt>
      <trkpt lat="47.626836" lon="12.241433">
        <ele>663.0</ele>
      </trkpt>
      <trkpt lat="47.626796" lon="12.241398">
        <ele>663.5</ele>
      </trkpt>
      <trkpt lat="47.62676" lon="12.241302">
        <ele>664.6</ele>
      </trkpt>
      <trkpt lat="47.626733" lon="12.241185">
        <ele>665.5</ele>
      </trkpt>
      <trkpt lat="47.626712" lon="12.241138">
        <ele>666.0</ele>
      </trkpt>
      <trkpt lat="47.626685" lon="12.241119">
        <ele>666.4</ele>
      </trkpt>
      <trkpt lat="47.626596" lon="12.241104">
        <ele>667.5</ele>
      </trkpt>
      <trkpt lat="47.626495" lon="12.241108">
        <ele>668.6</ele>
      </trkpt>
      <trkpt lat="47.626426" lon="12.2411">
        <ele>669.4</ele>
      </trkpt>
      <trkpt lat="47.626365" lon="12.241059">
        <ele>670.1</ele>
      </trkpt>
      <trkpt lat="47.626308" lon="12.240975">
        <ele>671.2</ele>
      </trkpt>
      <trkpt lat="47.626249" lon="12.240892">
        <ele>672.6</ele>
      </trkpt>
      <trkpt lat="47.626192" lon="12.240842">
        <ele>673.3</ele>
      </trkpt>
      <trkpt lat="47.626145" lon="12.240828">
        <ele>673.7</ele>
      </trkpt>
      <trkpt lat="47.626093" lon="12.240836">
        <ele>674.5</ele>
      </trkpt>
      <trkpt lat="47.626039" lon="12.240851">
        <ele>675.2</ele>
      </trkpt>
      <trkpt lat="47.625936" lon="12.240903">
        <ele>676.3</ele>
      </trkpt>
      <trkpt lat="47.62578" lon="12.240987">
        <ele>678.3</ele>
      </trkpt>
      <trkpt lat="47.625711" lon="12.241035">
        <ele>679.5</ele>
      </trkpt>
      <trkpt lat="47.625674" lon="12.241083">
        <ele>679.9</ele>
      </trkpt>
      <trkpt lat="47.625651" lon="12.241149">
        <ele>680.3</ele>
      </trkpt>
      <trkpt lat="47.62563" lon="12.241263">
        <ele>681.3</ele>
      </trkpt>
      <trkpt lat="47.625609" lon="12.241364">
        <ele>682.2</ele>
      </trkpt>
      <trkpt lat="47.625573" lon="12.241446">
        <ele>682.9</ele>
      </trkpt>
      <trkpt lat="47.625538" lon="12.241496">
        <ele>683.5</ele>
      </trkpt>
      <trkpt lat="47.625496" lon="12.241526">
        <ele>684.1</ele>
      </trkpt>
      <trkpt lat="47.625464" lon="12.24153">
        <ele>684.3</ele>
      </trkpt>
      <trkpt lat="47.625429" lon="12.241522">
        <ele>684.8</ele>
      </trkpt>
      <trkpt lat="47.625394" lon="12.241499">
        <ele>685.5</ele>
      </trkpt>
      <trkpt lat="47.625342" lon="12.241417">
        <ele>686.1</ele>
      </trkpt>
      <trkpt lat="47.625282" lon="12.241351">
        <ele>686.7</ele>
      </trkpt>
      <trkpt lat="47.625246" lon="12.241319">
        <ele>687.3</ele>
      </trkpt>
      <trkpt lat="47.625147" lon="12.241255">
        <ele>688.6</ele>
      </trkpt>
      <trkpt lat="47.625076" lon="12.241227">
        <ele>689.3</ele>
      </trkpt>
      <trkpt lat="47.625007" lon="12.241215">
        <ele>689.9</ele>
      </trkpt>
      <trkpt lat="47.624918" lon="12.241227">
        <ele>691.1</ele>
      </trkpt>
      <trkpt lat="47.62485" lon="12.241256">
        <ele>692.0</ele>
      </trkpt>
      <trkpt lat="47.624785" lon="12.241299">
        <ele>693.0</ele>
      </trkpt>
      <trkpt lat="47.62472" lon="12.241375">
        <ele>694.1</ele>
      </trkpt>
      <trkpt lat="47.624645" lon="12.241465">
        <ele>695.7</ele>
      </trkpt>
      <trkpt lat="47.624593" lon="12.241495">
        <ele>696.0</ele>
      </trkpt>
      <trkpt lat="47.624556" lon="12.241496">
        <ele>696.4</ele>
      </trkpt>
      <trkpt lat="47.624488" lon="12.241479">
        <ele>697.3</ele>
      </trkpt>
      <trkpt lat="47.624338" lon="12.241431">
        <ele>698.9</ele>
      </trkpt>
      <trkpt lat="47.624215" lon="12.241382">
        <ele>700.6</ele>
      </trkpt>
      <trkpt lat="47.623991" lon="12.241299">
        <ele>703.6</ele>
      </trkpt>
      <trkpt lat="47.623851" lon="12.241248">
        <ele>705.3</ele>
      </trkpt>
      <trkpt lat="47.623823" lon="12.241228">
        <ele>705.6</ele>
      </trkpt>
      <trkpt lat="47.623804" lon="12.241207">
        <ele>705.9</ele>
      </trkpt>
      <trkpt lat="47.62376" lon="12.24114">
        <ele>706.7</ele>
      </trkpt>
      <trkpt lat="47.623724" lon="12.241074">
        <ele>707.6</ele>
      </trkpt>
      <trkpt lat="47.623703" lon="12.241052">
        <ele>708.0</ele>
      </trkpt>
      <trkpt lat="47.623668" lon="12.241035">
        <ele>708.3</ele>
      </trkpt>
      <trkpt lat="47.623637" lon="12.241037">
        <ele>708.5</ele>
      </trkpt>
      <trkpt lat="47.623571" lon="12.241065">
        <ele>709.2</ele>
      </trkpt>
      <trkpt lat="47.623484" lon="12.241084">
        <ele>710.0</ele>
      </trkpt>
      <trkpt lat="47.623434" lon="12.241085">
        <ele>710.5</ele>
      </trkpt>
      <trkpt lat="47.623399" lon="12.241074">
        <ele>711.0</ele>
      </trkpt>
      <trkpt lat="47.623338" lon="12.241003">
        <ele>712.1</ele>
      </trkpt>
      <trkpt lat="47.623276" lon="12.240908">
        <ele>713.5</ele>
      </trkpt>
      <trkpt lat="47.623238" lon="12.240871">
        <ele>714.1</ele>
      </trkpt>
      <trkpt lat="47.623226" lon="12.240864">
        <ele>714.3</ele>
      </trkpt>
      <trkpt lat="47.623209" lon="12.240856">
        <ele>714.5</ele>
      </trkpt>
      <trkpt lat="47.623166" lon="12.240851">
        <ele>715.0</ele>
      </trkpt>
      <trkpt lat="47.623142" lon="12.240914">
        <ele>715.8</ele>
      </trkpt>
      <trkpt lat="47.623112" lon="12.240985">
        <ele>717.4</ele>
      </trkpt>
      <trkpt lat="47.622982" lon="12.241192">
        <ele>724.0</ele>
      </trkpt>
      <trkpt lat="47.622875" lon="12.24128">
        <ele>727.9</ele>
      </trkpt>
      <trkpt lat="47.622815" lon="12.241315">
        <ele>729.8</ele>
      </trkpt>
      <trkpt lat="47.62275" lon="12.241293">
        <ele>731.2</ele>
      </trkpt>
      <trkpt lat="47.622613" lon="12.241245">
        <ele>734.5</ele>
      </trkpt>
      <trkpt lat="47.62254" lon="12.241236">
        <ele>735.8</ele>
      </trkpt>
      <trkpt lat="47.622514" lon="12.241254">
        <ele>736.3</ele>
      </trkpt>
      <trkpt lat="47.622489" lon="12.241327">
        <ele>737.2</ele>
      </trkpt>
      <trkpt lat="47.622403" lon="12.241556">
        <ele>742.2</ele>
      </trkpt>
      <trkpt lat="47.62225" lon="12.241895">
        <ele>752.3</ele>
      </trkpt>
      <trkpt lat="47.622099" lon="12.242222">
        <ele>761.4</ele>
      </trkpt>
      <trkpt lat="47.62195" lon="12.242429">
        <ele>768.8</ele>
      </trkpt>
      <trkpt lat="47.621844" lon="12.242627">
        <ele>775.2</ele>
      </trkpt>
      <trkpt lat="47.621734" lon="12.242814">
        <ele>782.1</ele>
      </trkpt>
      <trkpt lat="47.621591" lon="12.242998">
        <ele>791.1</ele>
      </trkpt>
      <trkpt lat="47.621492" lon="12.243095">
        <ele>795.8</ele>
      </trkpt>
      <trkpt lat="47.621271" lon="12.243154">
        <ele>803.8</ele>
      </trkpt>
      <trkpt lat="47.62107" lon="12.243228">
        <ele>810.7</ele>
      </trkpt>
      <trkpt lat="47.621046" lon="12.24325">
        <ele>811.4</ele>
      </trkpt>
      <trkpt lat="47.62101" lon="12.243301">
        <ele>813.0</ele>
      </trkpt>
      <trkpt lat="47.620965" lon="12.243346">
        <ele>815.2</ele>
      </trkpt>
      <trkpt lat="47.620915" lon="12.243373">
        <ele>817.2</ele>
      </trkpt>
      <trkpt lat="47.620831" lon="12.243415">
        <ele>820.2</ele>
      </trkpt>
      <trkpt lat="47.620775" lon="12.243424">
        <ele>822.1</ele>
      </trkpt>
      <trkpt lat="47.62071" lon="12.243421">
        <ele>824.1</ele>
      </trkpt>
      <trkpt lat="47.620636" lon="12.243444">
        <ele>826.8</ele>
      </trkpt>
      <trkpt lat="47.620556" lon="12.243452">
        <ele>829.5</ele>
      </trkpt>
      <trkpt lat="47.620507" lon="12.243449">
        <ele>831.0</ele>
      </trkpt>
      <trkpt lat="47.620453" lon="12.243461">
        <ele>832.8</ele>
      </trkpt>
      <trkpt lat="47.62039" lon="12.243462">
        <ele>835.0</ele>
      </trkpt>
      <trkpt lat="47.620343" lon="12.243488">
        <ele>836.6</ele>
      </trkpt>
      <trkpt lat="47.620289" lon="12.243517">
        <ele>838.8</ele>
      </trkpt>
      <trkpt lat="47.620248" lon="12.243558">
        <ele>841.0</ele>
      </trkpt>
      <trkpt lat="47.620192" lon="12.243608">
        <ele>842.6</ele>
      </trkpt>
      <trkpt lat="47.620117" lon="12.243687">
        <ele>844.0</ele>
      </trkpt>
      <trkpt lat="47.620039" lon="12.243742">
        <ele>844.1</ele>
      </trkpt>
      <trkpt lat="47.619982" lon="12.243756">
        <ele>844.1</ele>
      </trkpt>
      <trkpt lat="47.619905" lon="12.243776">
        <ele>844.4</ele>
      </trkpt>
      <trkpt lat="47.619844" lon="12.243818">
        <ele>845.1</ele>
      </trkpt>
      <trkpt lat="47.619789" lon="12.243859">
        <ele>844.9</ele>
      </trkpt>
      <trkpt lat="47.619763" lon="12.243895">
        <ele>845.6</ele>
      </trkpt>
      <trkpt lat="47.619738" lon="12.243902">
        <ele>845.2</ele>
      </trkpt>
      <trkpt lat="47.619701" lon="12.243909">
        <ele>844.5</ele>
      </trkpt>
      <trkpt lat="47.619627" lon="12.243961">
        <ele>845.9</ele>
      </trkpt>
      <trkpt lat="47.619573" lon="12.243994">
        <ele>846.2</ele>
      </trkpt>
      <trkpt lat="47.619542" lon="12.244029">
        <ele>846.8</ele>
      </trkpt>
      <trkpt lat="47.619495" lon="12.244061">
        <ele>846.9</ele>
      </trkpt>
      <trkpt lat="47.61941" lon="12.244114">
        <ele>847.6</ele>
      </trkpt>
      <trkpt lat="47.619303" lon="12.24419">
        <ele>849.8</ele>
      </trkpt>
      <trkpt lat="47.619244" lon="12.244238">
        <ele>850.8</ele>
      </trkpt>
      <trkpt lat="47.61918" lon="12.244285">
        <ele>851.2</ele>
      </trkpt>
      <trkpt lat="47.619092" lon="12.244323">
        <ele>851.1</ele>
      </trkpt>
      <trkpt lat="47.619036" lon="12.244333">
        <ele>851.0</ele>
      </trkpt>
      <trkpt lat="47.618981" lon="12.244323">
        <ele>850.9</ele>
      </trkpt>
      <trkpt lat="47.61893" lon="12.244291">
        <ele>851.2</ele>
      </trkpt>
      <trkpt lat="47.618904" lon="12.244247">
        <ele>851.2</ele>
      </trkpt>
      <trkpt lat="47.618871" lon="12.244157">
        <ele>851.0</ele>
      </trkpt>
      <trkpt lat="47.618854" lon="12.244081">
        <ele>851.0</ele>
      </trkpt>
      <trkpt lat="47.61883" lon="12.243989">
        <ele>852.3</ele>
      </trkpt>
      <trkpt lat="47.618805" lon="12.243892">
        <ele>854.1</ele>
      </trkpt>
      <trkpt lat="47.618783" lon="12.243791">
        <ele>854.9</ele>
      </trkpt>
      <trkpt lat="47.618754" lon="12.243754">
        <ele>856.1</ele>
      </trkpt>
      <trkpt lat="47.618702" lon="12.243719">
        <ele>859.1</ele>
      </trkpt>
      <trkpt lat="47.618669" lon="12.243665">
        <ele>861.3</ele>
      </trkpt>
      <trkpt lat="47.618657" lon="12.243618">
        <ele>862.6</ele>
      </trkpt>
      <trkpt lat="47.618659" lon="12.243561">
        <ele>863.2</ele>
      </trkpt>
      <trkpt lat="47.618691" lon="12.243423">
        <ele>864.2</ele>
      </trkpt>
      <trkpt lat="47.618694" lon="12.243337">
        <ele>864.9</ele>
      </trkpt>
      <trkpt lat="47.618687" lon="12.243297">
        <ele>865.1</ele>
      </trkpt>
      <trkpt lat="47.618658" lon="12.243251">
        <ele>865.1</ele>
      </trkpt>
      <trkpt lat="47.618621" lon="12.243245">
        <ele>865.7</ele>
      </trkpt>
      <trkpt lat="47.618556" lon="12.243266">
        <ele>867.2</ele>
      </trkpt>
      <trkpt lat="47.618482" lon="12.24328">
        <ele>868.0</ele>
      </trkpt>
      <trkpt lat="47.618426" lon="12.243315">
        <ele>868.9</ele>
      </trkpt>
      <trkpt lat="47.61836" lon="12.24332">
        <ele>867.0</ele>
      </trkpt>
      <trkpt lat="47.618286" lon="12.243358">
        <ele>868.2</ele>
      </trkpt>
      <trkpt lat="47.618195" lon="12.243387">
        <ele>869.7</ele>
      </trkpt>
      <trkpt lat="47.618145" lon="12.243407">
        <ele>870.6</ele>
      </trkpt>
      <trkpt lat="47.618081" lon="12.243421">
        <ele>871.3</ele>
      </trkpt>
      <trkpt lat="47.618006" lon="12.243444">
        <ele>874.8</ele>
      </trkpt>
      <trkpt lat="47.617947" lon="12.243471">
        <ele>878.5</ele>
      </trkpt>
      <trkpt lat="47.617899" lon="12.24348">
        <ele>881.5</ele>
      </trkpt>
      <trkpt lat="47.617793" lon="12.24348">
        <ele>884.3</ele>
      </trkpt>
      <trkpt lat="47.617715" lon="12.243513">
        <ele>886.7</ele>
      </trkpt>
      <trkpt lat="47.617627" lon="12.243519">
        <ele>887.5</ele>
      </trkpt>
      <trkpt lat="47.617594" lon="12.243527">
        <ele>888.5</ele>
      </trkpt>
      <trkpt lat="47.617533" lon="12.243589">
        <ele>893.5</ele>
      </trkpt>
      <trkpt lat="47.617414" lon="12.243695">
        <ele>902.9</ele>
      </trkpt>
      <trkpt lat="47.617341" lon="12.243726">
        <ele>906.3</ele>
      </trkpt>
      <trkpt lat="47.617255" lon="12.243781">
        <ele>908.9</ele>
      </trkpt>
      <trkpt lat="47.617168" lon="12.243825">
        <ele>911.9</ele>
      </trkpt>
      <trkpt lat="47.617109" lon="12.243866">
        <ele>914.7</ele>
      </trkpt>
      <trkpt lat="47.617067" lon="12.243865">
        <ele>915.9</ele>
      </trkpt>
      <trkpt lat="47.616993" lon="12.243814">
        <ele>916.8</ele>
      </trkpt>
      <trkpt lat="47.616928" lon="12.243766">
        <ele>917.1</ele>
      </trkpt>
      <trkpt lat="47.616843" lon="12.243743">
        <ele>918.8</ele>
      </trkpt>
      <trkpt lat="47.616772" lon="12.243708">
        <ele>920.8</ele>
      </trkpt>
      <trkpt lat="47.61671" lon="12.243674">
        <ele>922.7</ele>
      </trkpt>
      <trkpt lat="47.616644" lon="12.243665">
        <ele>924.9</ele>
      </trkpt>
      <trkpt lat="47.616567" lon="12.243656">
        <ele>927.9</ele>
      </trkpt>
      <trkpt lat="47.616504" lon="12.243619">
        <ele>930.6</ele>
      </trkpt>
      <trkpt lat="47.616455" lon="12.243569">
        <ele>932.5</ele>
      </trkpt>
      <trkpt lat="47.61641" lon="12.243492">
        <ele>933.9</ele>
      </trkpt>
      <trkpt lat="47.616348" lon="12.243436">
        <ele>936.9</ele>
      </trkpt>
      <trkpt lat="47.616299" lon="12.243363">
        <ele>938.4</ele>
      </trkpt>
      <trkpt lat="47.616251" lon="12.243341">
        <ele>941.4</ele>
      </trkpt>
      <trkpt lat="47.616209" lon="12.243291">
        <ele>943.3</ele>
      </trkpt>
      <trkpt lat="47.616151" lon="12.243261">
        <ele>947.2</ele>
      </trkpt>
      <trkpt lat="47.616129" lon="12.243236">
        <ele>948.4</ele>
      </trkpt>
      <trkpt lat="47.616097" lon="12.24318">
        <ele>950.7</ele>
      </trkpt>
      <trkpt lat="47.616066" lon="12.243062">
        <ele>953.8</ele>
      </trkpt>
      <trkpt lat="47.61604" lon="12.242938">
        <ele>957.3</ele>
      </trkpt>
      <trkpt lat="47.616018" lon="12.242831">
        <ele>958.9</ele>
      </trkpt>
      <trkpt lat="47.61598" lon="12.242732">
        <ele>961.0</ele>
      </trkpt>
      <trkpt lat="47.615939" lon="12.24263">
        <ele>963.5</ele>
      </trkpt>
      <trkpt lat="47.615791" lon="12.242373">
        <ele>969.6</ele>
      </trkpt>
      <trkpt lat="47.615772" lon="12.242321">
        <ele>969.7</ele>
      </trkpt>
      <trkpt lat="47.615737" lon="12.242269">
        <ele>970.3</ele>
      </trkpt>
      <trkpt lat="47.615663" lon="12.24219">
        <ele>971.5</ele>
      </trkpt>
      <trkpt lat="47.615622" lon="12.24214">
        <ele>972.5</ele>
      </trkpt>
      <trkpt lat="47.615576" lon="12.242046">
        <ele>973.7</ele>
      </trkpt>
      <trkpt lat="47.615523" lon="12.241961">
        <ele>976.4</ele>
      </trkpt>
      <trkpt lat="47.615459" lon="12.241909">
        <ele>979.9</ele>
      </trkpt>
      <trkpt lat="47.61535" lon="12.241785">
        <ele>984.6</ele>
      </trkpt>
      <trkpt lat="47.615251" lon="12.241723">
        <ele>987.4</ele>
      </trkpt>
      <trkpt lat="47.61518" lon="12.241695">
        <ele>989.5</ele>
      </trkpt>
      <trkpt lat="47.615123" lon="12.241661">
        <ele>990.7</ele>
      </trkpt>
      <trkpt lat="47.615041" lon="12.241597">
        <ele>991.7</ele>
      </trkpt>
      <trkpt lat="47.614972" lon="12.241571">
        <ele>994.0</ele>
      </trkpt>
      <trkpt lat="47.614899" lon="12.241524">
        <ele>996.5</ele>
      </trkpt>
      <trkpt lat="47.61485" lon="12.241487">
        <ele>997.6</ele>
      </trkpt>
      <trkpt lat="47.614794" lon="12.241433">
        <ele>999.6</ele>
      </trkpt>
      <trkpt lat="47.614768" lon="12.241387">
        <ele>999.8</ele>
      </trkpt>
      <trkpt lat="47.614733" lon="12.241331">
        <ele>999.4</ele>
      </trkpt>
      <trkpt lat="47.614691" lon="12.241309">
        <ele>1000.7</ele>
      </trkpt>
      <trkpt lat="47.614607" lon="12.241276">
        <ele>1003.3</ele>
      </trkpt>
      <trkpt lat="47.614531" lon="12.241227">
        <ele>1004.7</ele>
      </trkpt>
      <trkpt lat="47.614496" lon="12.241213">
        <ele>1004.6</ele>
      </trkpt>
      <trkpt lat="47.614473" lon="12.241207">
        <ele>1004.5</ele>
      </trkpt>
      <trkpt lat="47.614436" lon="12.241231">
        <ele>1005.5</ele>
      </trkpt>
      <trkpt lat="47.614368" lon="12.241233">
        <ele>1005.6</ele>
      </trkpt>
      <trkpt lat="47.614261" lon="12.241239">
        <ele>1006.6</ele>
      </trkpt>
      <trkpt lat="47.614219" lon="12.241228">
        <ele>1006.6</ele>
      </trkpt>
      <trkpt lat="47.61416" lon="12.241187">
        <ele>1006.3</ele>
      </trkpt>
      <trkpt lat="47.614121" lon="12.241124">
        <ele>1004.9</ele>
      </trkpt>
      <trkpt lat="47.614081" lon="12.241095">
        <ele>1004.9</ele>
      </trkpt>
      <trkpt lat="47.614006" lon="12.241059">
        <ele>1005.5</ele>
      </trkpt>
      <trkpt lat="47.613953" lon="12.241022">
        <ele>1005.8</ele>
      </trkpt>
      <trkpt lat="47.6139" lon="12.24097">
        <ele>1006.1</ele>
      </trkpt>
      <trkpt lat="47.613852" lon="12.240912">
        <ele>1006.8</ele>
      </trkpt>
      <trkpt lat="47.613785" lon="12.240789">
        <ele>1008.4</ele>
      </trkpt>
      <trkpt lat="47.613753" lon="12.240726">
        <ele>1010.0</ele>
      </trkpt>
      <trkpt lat="47.613726" lon="12.240691">
        <ele>1011.3</ele>
      </trkpt>
      <trkpt lat="47.613672" lon="12.240576">
        <ele>1011.7</ele>
      </trkpt>
      <trkpt lat="47.613635" lon="12.240499">
        <ele>1010.2</ele>
      </trkpt>
      <trkpt lat="47.613602" lon="12.240463">
        <ele>1010.2</ele>
      </trkpt>
      <trkpt lat="47.613565" lon="12.240439">
        <ele>1010.6</ele>
      </trkpt>
      <trkpt lat="47.613533" lon="12.240385">
        <ele>1009.8</ele>
      </trkpt>
      <trkpt lat="47.613503" lon="12.240339">
        <ele>1009.1</ele>
      </trkpt>
      <trkpt lat="47.613475" lon="12.240327">
        <ele>1009.4</ele>
      </trkpt>
      <trkpt lat="47.613448" lon="12.24031">
        <ele>1009.2</ele>
      </trkpt>
      <trkpt lat="47.613402" lon="12.24029">
        <ele>1009.1</ele>
      </trkpt>
      <trkpt lat="47.613356" lon="12.240257">
        <ele>1008.2</ele>
      </trkpt>
      <trkpt lat="47.613322" lon="12.240245">
        <ele>1008.2</ele>
      </trkpt>
      <trkpt lat="47.61331" lon="12.240241">
        <ele>1008.2</ele>
      </trkpt>
      <trkpt lat="47.613273" lon="12.240244">
        <ele>1009.0</ele>
      </trkpt>
      <trkpt lat="47.613209" lon="12.240256">
        <ele>1010.7</ele>
      </trkpt>
      <trkpt lat="47.613158" lon="12.240249">
        <ele>1011.2</ele>
      </trkpt>
      <trkpt lat="47.613103" lon="12.24021">
        <ele>1010.6</ele>
      </trkpt>
      <trkpt lat="47.613068" lon="12.240137">
        <ele>1009.6</ele>
      </trkpt>
      <trkpt lat="47.613043" lon="12.240095">
        <ele>1008.7</ele>
      </trkpt>
      <trkpt lat="47.613019" lon="12.240089">
        <ele>1008.7</ele>
      </trkpt>
      <trkpt lat="47.612989" lon="12.240109">
        <ele>1010.0</ele>
      </trkpt>
      <trkpt lat="47.612977" lon="12.24011">
        <ele>1010.0</ele>
      </trkpt>
      <trkpt lat="47.612965" lon="12.240111">
        <ele>1010.0</ele>
      </trkpt>
      <trkpt lat="47.612928" lon="12.240083">
        <ele>1007.9</ele>
      </trkpt>
      <trkpt lat="47.612903" lon="12.24003">
        <ele>1007.2</ele>
      </trkpt>
      <trkpt lat="47.612884" lon="12.239986">
        <ele>1008.0</ele>
      </trkpt>
      <trkpt lat="47.612872" lon="12.239964">
        <ele>1008.2</ele>
      </trkpt>
      <trkpt lat="47.612865" lon="12.239951">
        <ele>1008.1</ele>
      </trkpt>
      <trkpt lat="47.612833" lon="12.239911">
        <ele>1008.5</ele>
      </trkpt>
      <trkpt lat="47.612792" lon="12.239832">
        <ele>1008.0</ele>
      </trkpt>
      <trkpt lat="47.612757" lon="12.239736">
        <ele>1005.8</ele>
      </trkpt>
      <trkpt lat="47.612721" lon="12.239665">
        <ele>1006.1</ele>
      </trkpt>
      <trkpt lat="47.612706" lon="12.239591">
        <ele>1007.3</ele>
      </trkpt>
      <trkpt lat="47.612695" lon="12.239522">
        <ele>1008.1</ele>
      </trkpt>
      <trkpt lat="47.612677" lon="12.239454">
        <ele>1009.6</ele>
      </trkpt>
      <trkpt lat="47.612674" lon="12.239376">
        <ele>1009.3</ele>
      </trkpt>
      <trkpt lat="47.61266" lon="12.239303">
        <ele>1009.0</ele>
      </trkpt>
      <trkpt lat="47.612627" lon="12.23927">
        <ele>1010.5</ele>
      </trkpt>
      <trkpt lat="47.612607" lon="12.239234">
        <ele>1011.2</ele>
      </trkpt>
      <trkpt lat="47.612605" lon="12.239207">
        <ele>1011.0</ele>
      </trkpt>
      <trkpt lat="47.612609" lon="12.239171">
        <ele>1010.5</ele>
      </trkpt>
      <trkpt lat="47.612597" lon="12.239116">
        <ele>1011.2</ele>
      </trkpt>
      <trkpt lat="47.612581" lon="12.239043">
        <ele>1012.6</ele>
      </trkpt>
      <trkpt lat="47.612574" lon="12.238967">
        <ele>1015.3</ele>
      </trkpt>
      <trkpt lat="47.612568" lon="12.238931">
        <ele>1016.9</ele>
      </trkpt>
      <trkpt lat="47.61253" lon="12.238873">
        <ele>1019.5</ele>
      </trkpt>
      <trkpt lat="47.612483" lon="12.238791">
        <ele>1022.5</ele>
      </trkpt>
      <trkpt lat="47.612433" lon="12.238723">
        <ele>1024.6</ele>
      </trkpt>
      <trkpt lat="47.61242" lon="12.238666">
        <ele>1025.9</ele>
      </trkpt>
      <trkpt lat="47.612419" lon="12.238575">
        <ele>1027.4</ele>
      </trkpt>
      <trkpt lat="47.612414" lon="12.238472">
        <ele>1030.0</ele>
      </trkpt>
      <trkpt lat="47.61241" lon="12.238389">
        <ele>1032.6</ele>
      </trkpt>
      <trkpt lat="47.612422" lon="12.238288">
        <ele>1034.7</ele>
      </trkpt>
      <trkpt lat="47.612438" lon="12.23818">
        <ele>1037.6</ele>
      </trkpt>
      <trkpt lat="47.612443" lon="12.238144">
        <ele>1038.8</ele>
      </trkpt>
      <trkpt lat="47.612421" lon="12.238129">
        <ele>1040.5</ele>
      </trkpt>
      <trkpt lat="47.612386" lon="12.238139">
        <ele>1041.8</ele>
      </trkpt>
      <trkpt lat="47.612332" lon="12.238144">
        <ele>1044.6</ele>
      </trkpt>
      <trkpt lat="47.612289" lon="12.23816">
        <ele>1047.1</ele>
      </trkpt>
      <trkpt lat="47.612265" lon="12.23815">
        <ele>1049.0</ele>
      </trkpt>
      <trkpt lat="47.612242" lon="12.238112">
        <ele>1051.2</ele>
      </trkpt>
      <trkpt lat="47.612211" lon="12.238041">
        <ele>1053.5</ele>
      </trkpt>
      <trkpt lat="47.612184" lon="12.238004">
        <ele>1055.2</ele>
      </trkpt>
      <trkpt lat="47.612133" lon="12.237945">
        <ele>1059.2</ele>
      </trkpt>
      <trkpt lat="47.612091" lon="12.237866">
        <ele>1062.5</ele>
      </trkpt>
      <trkpt lat="47.612065" lon="12.237814">
        <ele>1064.7</ele>
      </trkpt>
      <trkpt lat="47.612061" lon="12.237717">
        <ele>1067.6</ele>
      </trkpt>
      <trkpt lat="47.61201" lon="12.23764">
        <ele>1071.5</ele>
      </trkpt>
      <trkpt lat="47.611941" lon="12.237561">
        <ele>1075.5</ele>
      </trkpt>
      <trkpt lat="47.611869" lon="12.237474">
        <ele>1076.9</ele>
      </trkpt>
      <trkpt lat="47.611846" lon="12.237459">
        <ele>1077.3</ele>
      </trkpt>
      <trkpt lat="47.61182" lon="12.237473">
        <ele>1078.3</ele>
      </trkpt>
      <trkpt lat="47.611806" lon="12.237507">
        <ele>1080.0</ele>
      </trkpt>
      <trkpt lat="47.611783" lon="12.237509">
        <ele>1081.2</ele>
      </trkpt>
      <trkpt lat="47.611751" lon="12.237499">
        <ele>1082.5</ele>
      </trkpt>
      <trkpt lat="47.611729" lon="12.237521">
        <ele>1084.7</ele>
      </trkpt>
      <trkpt lat="47.61172" lon="12.237551">
        <ele>1086.6</ele>
      </trkpt>
      <trkpt lat="47.611714" lon="12.23758">
        <ele>1088.2</ele>
      </trkpt>
      <trkpt lat="47.611696" lon="12.237594">
        <ele>1089.4</ele>
      </trkpt>
      <trkpt lat="47.611669" lon="12.237594">
        <ele>1090.4</ele>
      </trkpt>
      <trkpt lat="47.611655" lon="12.237613">
        <ele>1091.6</ele>
      </trkpt>
      <trkpt lat="47.611651" lon="12.23766">
        <ele>1093.6</ele>
      </trkpt>
      <trkpt lat="47.611643" lon="12.23774">
        <ele>1096.7</ele>
      </trkpt>
      <trkpt lat="47.611638" lon="12.237814">
        <ele>1098.7</ele>
      </trkpt>
      <trkpt lat="47.611632" lon="12.237833">
        <ele>1099.3</ele>
      </trkpt>
      <trkpt lat="47.611607" lon="12.237845">
        <ele>1100.9</ele>
      </trkpt>
      <trkpt lat="47.611575" lon="12.237849">
        <ele>1102.9</ele>
      </trkpt>
      <trkpt lat="47.611542" lon="12.237831">
        <ele>1104.6</ele>
      </trkpt>
      <trkpt lat="47.611499" lon="12.237802">
        <ele>1106.2</ele>
      </trkpt>
      <trkpt lat="47.611458" lon="12.237789">
        <ele>1107.8</ele>
      </trkpt>
      <trkpt lat="47.611412" lon="12.2378">
        <ele>1109.8</ele>
      </trkpt>
      <trkpt lat="47.611348" lon="12.237833">
        <ele>1112.4</ele>
      </trkpt>
      <trkpt lat="47.611293" lon="12.237872">
        <ele>1115.3</ele>
      </trkpt>
      <trkpt lat="47.611236" lon="12.237873">
        <ele>1116.7</ele>
      </trkpt>
      <trkpt lat="47.611103" lon="12.237836">
        <ele>1117.8</ele>
      </trkpt>
      <trkpt lat="47.61104" lon="12.237812">
        <ele>1119.9</ele>
      </trkpt>
      <trkpt lat="47.610983" lon="12.237817">
        <ele>1124.1</ele>
      </trkpt>
      <trkpt lat="47.610926" lon="12.237836">
        <ele>1128.6</ele>
      </trkpt>
      <trkpt lat="47.610867" lon="12.237833">
        <ele>1132.0</ele>
      </trkpt>
      <trkpt lat="47.610794" lon="12.2378">
        <ele>1135.9</ele>
      </trkpt>
      <trkpt lat="47.610735" lon="12.237734">
        <ele>1137.8</ele>
      </trkpt>
      <trkpt lat="47.610673" lon="12.237661">
        <ele>1139.8</ele>
      </trkpt>
      <trkpt lat="47.610613" lon="12.237576">
        <ele>1141.4</ele>
      </trkpt>
      <trkpt lat="47.610573" lon="12.237547">
        <ele>1143.1</ele>
      </trkpt>
      <trkpt lat="47.610533" lon="12.237536">
        <ele>1145.0</ele>
      </trkpt>
      <trkpt lat="47.610486" lon="12.237537">
        <ele>1147.5</ele>
      </trkpt>
      <trkpt lat="47.610449" lon="12.237529">
        <ele>1148.9</ele>
      </trkpt>
      <trkpt lat="47.610397" lon="12.237488">
        <ele>1149.6</ele>
      </trkpt>
      <trkpt lat="47.610347" lon="12.237472">
        <ele>1150.9</ele>
      </trkpt>
      <trkpt lat="47.610281" lon="12.237442">
        <ele>1152.5</ele>
      </trkpt>
      <trkpt lat="47.610189" lon="12.237423">
        <ele>1156.4</ele>
      </trkpt>
      <trkpt lat="47.610131" lon="12.237394">
        <ele>1159.2</ele>
      </trkpt>
      <trkpt lat="47.610098" lon="12.237359">
        <ele>1160.0</ele>
      </trkpt>
      <trkpt lat="47.610048" lon="12.237301">
        <ele>1159.9</ele>
        <name>47.610048,12.237301</name>
        <extensions>
          <oa:Extension>
            <oa:mapZoom>16</oa:mapZoom>
          </oa:Extension>
        </extensions>
      </trkpt>
      <trkpt lat="47.610041" lon="12.237293">
        <ele>1159.9</ele>
      </trkpt>
      <trkpt lat="47.609962" lon="12.237212">
        <ele>1162.2</ele>
      </trkpt>
      <trkpt lat="47.609911" lon="12.237147">
        <ele>1165.1</ele>
      </trkpt>
      <trkpt lat="47.609836" lon="12.23704">
        <ele>1171.2</ele>
      </trkpt>
      <trkpt lat="47.609739" lon="12.236947">
        <ele>1177.2</ele>
      </trkpt>
      <trkpt lat="47.609695" lon="12.236906">
        <ele>1179.7</ele>
      </trkpt>
      <trkpt lat="47.609643" lon="12.236851">
        <ele>1182.0</ele>
      </trkpt>
      <trkpt lat="47.609581" lon="12.236802">
        <ele>1185.0</ele>
      </trkpt>
      <trkpt lat="47.60958" lon="12.236801">
        <ele>1185.0</ele>
      </trkpt>
      <trkpt lat="47.609537" lon="12.236754">
        <ele>1186.5</ele>
      </trkpt>
      <trkpt lat="47.609495" lon="12.236696">
        <ele>1188.1</ele>
      </trkpt>
      <trkpt lat="47.609441" lon="12.236644">
        <ele>1190.5</ele>
      </trkpt>
      <trkpt lat="47.609389" lon="12.23662">
        <ele>1192.8</ele>
      </trkpt>
      <trkpt lat="47.609343" lon="12.23661">
        <ele>1194.5</ele>
      </trkpt>
      <trkpt lat="47.609286" lon="12.236626">
        <ele>1196.1</ele>
      </trkpt>
      <trkpt lat="47.609218" lon="12.236615">
        <ele>1198.4</ele>
      </trkpt>
      <trkpt lat="47.609182" lon="12.236612">
        <ele>1199.7</ele>
      </trkpt>
      <trkpt lat="47.609148" lon="12.236631">
        <ele>1201.2</ele>
      </trkpt>
      <trkpt lat="47.609107" lon="12.236664">
        <ele>1203.4</ele>
      </trkpt>
      <trkpt lat="47.609065" lon="12.236656">
        <ele>1205.4</ele>
      </trkpt>
      <trkpt lat="47.609009" lon="12.236636">
        <ele>1208.2</ele>
      </trkpt>
      <trkpt lat="47.608965" lon="12.236608">
        <ele>1210.4</ele>
      </trkpt>
      <trkpt lat="47.6089" lon="12.236592">
        <ele>1214.2</ele>
      </trkpt>
      <trkpt lat="47.60885" lon="12.236597">
        <ele>1216.5</ele>
      </trkpt>
      <trkpt lat="47.608802" lon="12.236565">
        <ele>1218.4</ele>
      </trkpt>
      <trkpt lat="47.608764" lon="12.236508">
        <ele>1219.8</ele>
      </trkpt>
      <trkpt lat="47.608725" lon="12.236444">
        <ele>1221.4</ele>
      </trkpt>
      <trkpt lat="47.608693" lon="12.236425">
        <ele>1222.6</ele>
      </trkpt>
      <trkpt lat="47.608632" lon="12.236397">
        <ele>1224.8</ele>
      </trkpt>
      <trkpt lat="47.608594" lon="12.236379">
        <ele>1226.1</ele>
      </trkpt>
      <trkpt lat="47.608539" lon="12.236325">
        <ele>1227.8</ele>
      </trkpt>
      <trkpt lat="47.608501" lon="12.236294">
        <ele>1228.9</ele>
      </trkpt>
      <trkpt lat="47.608428" lon="12.236292">
        <ele>1230.9</ele>
      </trkpt>
      <trkpt lat="47.608403" lon="12.236273">
        <ele>1231.3</ele>
      </trkpt>
      <trkpt lat="47.608388" lon="12.236301">
        <ele>1232.1</ele>
      </trkpt>
      <trkpt lat="47.608374" lon="12.236346">
        <ele>1233.4</ele>
      </trkpt>
      <trkpt lat="47.608366" lon="12.23639">
        <ele>1234.7</ele>
      </trkpt>
      <trkpt lat="47.608319" lon="12.236414">
        <ele>1236.8</ele>
      </trkpt>
      <trkpt lat="47.608283" lon="12.236481">
        <ele>1239.4</ele>
      </trkpt>
      <trkpt lat="47.608256" lon="12.236513">
        <ele>1240.7</ele>
      </trkpt>
      <trkpt lat="47.608205" lon="12.236548">
        <ele>1242.2</ele>
      </trkpt>
      <trkpt lat="47.608166" lon="12.236589">
        <ele>1243.7</ele>
      </trkpt>
      <trkpt lat="47.608154" lon="12.236667">
        <ele>1245.1</ele>
      </trkpt>
      <trkpt lat="47.608151" lon="12.236718">
        <ele>1246.0</ele>
      </trkpt>
      <trkpt lat="47.608135" lon="12.236733">
        <ele>1246.8</ele>
      </trkpt>
      <trkpt lat="47.608068" lon="12.236726">
        <ele>1250.9</ele>
      </trkpt>
      <trkpt lat="47.608027" lon="12.236659">
        <ele>1251.8</ele>
      </trkpt>
      <trkpt lat="47.608005" lon="12.236601">
        <ele>1251.4</ele>
      </trkpt>
      <trkpt lat="47.607992" lon="12.236569">
        <ele>1251.3</ele>
      </trkpt>
      <trkpt lat="47.607967" lon="12.23651">
        <ele>1252.0</ele>
      </trkpt>
      <trkpt lat="47.607947" lon="12.236494">
        <ele>1253.7</ele>
      </trkpt>
      <trkpt lat="47.607908" lon="12.236463">
        <ele>1255.0</ele>
      </trkpt>
      <trkpt lat="47.607845" lon="12.236412">
        <ele>1253.9</ele>
      </trkpt>
      <trkpt lat="47.6078" lon="12.236364">
        <ele>1253.6</ele>
      </trkpt>
      <trkpt lat="47.607749" lon="12.23627">
        <ele>1251.3</ele>
      </trkpt>
      <trkpt lat="47.607678" lon="12.236157">
        <ele>1246.9</ele>
      </trkpt>
      <trkpt lat="47.607606" lon="12.236079">
        <ele>1245.1</ele>
      </trkpt>
      <trkpt lat="47.607541" lon="12.236032">
        <ele>1244.1</ele>
      </trkpt>
      <trkpt lat="47.607487" lon="12.235984">
        <ele>1242.6</ele>
      </trkpt>
      <trkpt lat="47.607451" lon="12.235972">
        <ele>1242.3</ele>
      </trkpt>
      <trkpt lat="47.60735" lon="12.235989">
        <ele>1244.3</ele>
      </trkpt>
      <trkpt lat="47.607237" lon="12.235998">
        <ele>1245.5</ele>
      </trkpt>
      <trkpt lat="47.607183" lon="12.236024">
        <ele>1247.8</ele>
      </trkpt>
      <trkpt lat="47.607145" lon="12.236042">
        <ele>1249.2</ele>
      </trkpt>
      <trkpt lat="47.607106" lon="12.236047">
        <ele>1249.9</ele>
      </trkpt>
      <trkpt lat="47.607075" lon="12.236043">
        <ele>1250.2</ele>
      </trkpt>
      <trkpt lat="47.607049" lon="12.236042">
        <ele>1250.7</ele>
      </trkpt>
      <trkpt lat="47.607042" lon="12.236061">
        <ele>1252.0</ele>
      </trkpt>
      <trkpt lat="47.607045" lon="12.236091">
        <ele>1254.0</ele>
      </trkpt>
      <trkpt lat="47.607034" lon="12.236125">
        <ele>1256.4</ele>
      </trkpt>
      <trkpt lat="47.607021" lon="12.236142">
        <ele>1257.6</ele>
      </trkpt>
      <trkpt lat="47.606994" lon="12.236155">
        <ele>1258.6</ele>
      </trkpt>
      <trkpt lat="47.606963" lon="12.236162">
        <ele>1259.4</ele>
      </trkpt>
      <trkpt lat="47.606947" lon="12.236181">
        <ele>1261.0</ele>
      </trkpt>
      <trkpt lat="47.606963" lon="12.236206">
        <ele>1262.6</ele>
      </trkpt>
      <trkpt lat="47.606987" lon="12.236233">
        <ele>1264.3</ele>
      </trkpt>
      <trkpt lat="47.606985" lon="12.236259">
        <ele>1266.3</ele>
      </trkpt>
      <trkpt lat="47.606968" lon="12.236276">
        <ele>1267.8</ele>
      </trkpt>
      <trkpt lat="47.606948" lon="12.236274">
        <ele>1267.9</ele>
      </trkpt>
      <trkpt lat="47.606924" lon="12.236258">
        <ele>1267.0</ele>
      </trkpt>
      <trkpt lat="47.606888" lon="12.236258">
        <ele>1267.5</ele>
      </trkpt>
      <trkpt lat="47.606867" lon="12.236272">
        <ele>1268.9</ele>
      </trkpt>
      <trkpt lat="47.606864" lon="12.236297">
        <ele>1271.3</ele>
      </trkpt>
      <trkpt lat="47.606885" lon="12.236337">
        <ele>1274.2</ele>
      </trkpt>
      <trkpt lat="47.606881" lon="12.236352">
        <ele>1275.6</ele>
      </trkpt>
      <trkpt lat="47.606855" lon="12.236369">
        <ele>1277.9</ele>
      </trkpt>
      <trkpt lat="47.60683" lon="12.236389">
        <ele>1279.7</ele>
      </trkpt>
      <trkpt lat="47.606806" lon="12.236431">
        <ele>1282.5</ele>
      </trkpt>
      <trkpt lat="47.606779" lon="12.236478">
        <ele>1285.9</ele>
      </trkpt>
      <trkpt lat="47.606746" lon="12.236494">
        <ele>1287.4</ele>
      </trkpt>
      <trkpt lat="47.606729" lon="12.23653">
        <ele>1290.5</ele>
      </trkpt>
      <trkpt lat="47.6067" lon="12.23655">
        <ele>1292.0</ele>
      </trkpt>
      <trkpt lat="47.60662" lon="12.236598">
        <ele>1293.9</ele>
      </trkpt>
      <trkpt lat="47.606548" lon="12.236654">
        <ele>1294.8</ele>
      </trkpt>
      <trkpt lat="47.60646" lon="12.236694">
        <ele>1294.3</ele>
      </trkpt>
      <trkpt lat="47.606356" lon="12.236759">
        <ele>1295.5</ele>
      </trkpt>
      <trkpt lat="47.606256" lon="12.236833">
        <ele>1296.3</ele>
      </trkpt>
      <trkpt lat="47.606158" lon="12.236909">
        <ele>1297.9</ele>
      </trkpt>
      <trkpt lat="47.60611" lon="12.236965">
        <ele>1299.9</ele>
      </trkpt>
      <trkpt lat="47.606096" lon="12.237001">
        <ele>1301.3</ele>
      </trkpt>
      <trkpt lat="47.606097" lon="12.237027">
        <ele>1302.3</ele>
      </trkpt>
      <trkpt lat="47.606137" lon="12.237087">
        <ele>1305.9</ele>
      </trkpt>
      <trkpt lat="47.606176" lon="12.237156">
        <ele>1310.0</ele>
      </trkpt>
      <trkpt lat="47.606189" lon="12.237221">
        <ele>1311.2</ele>
      </trkpt>
      <trkpt lat="47.606191" lon="12.237303">
        <ele>1310.6</ele>
      </trkpt>
      <trkpt lat="47.606202" lon="12.237409">
        <ele>1312.0</ele>
      </trkpt>
      <trkpt lat="47.606248" lon="12.237494">
        <ele>1315.1</ele>
      </trkpt>
      <trkpt lat="47.606316" lon="12.237643">
        <ele>1318.7</ele>
      </trkpt>
      <trkpt lat="47.606357" lon="12.237693">
        <ele>1321.1</ele>
      </trkpt>
      <trkpt lat="47.606398" lon="12.237726">
        <ele>1324.1</ele>
      </trkpt>
      <trkpt lat="47.606429" lon="12.237799">
        <ele>1326.3</ele>
      </trkpt>
      <trkpt lat="47.606477" lon="12.237937">
        <ele>1330.5</ele>
      </trkpt>
      <trkpt lat="47.606494" lon="12.238015">
        <ele>1332.6</ele>
      </trkpt>
      <trkpt lat="47.606496" lon="12.238089">
        <ele>1334.6</ele>
      </trkpt>
      <trkpt lat="47.606502" lon="12.238172">
        <ele>1337.1</ele>
      </trkpt>
      <trkpt lat="47.606503" lon="12.238179">
        <ele>1337.3</ele>
      </trkpt>
      <trkpt lat="47.606523" lon="12.238225">
        <ele>1339.3</ele>
      </trkpt>
      <trkpt lat="47.606529" lon="12.238257">
        <ele>1340.3</ele>
      </trkpt>
      <trkpt lat="47.606512" lon="12.23827">
        <ele>1340.3</ele>
      </trkpt>
      <trkpt lat="47.606476" lon="12.238254">
        <ele>1340.1</ele>
      </trkpt>
      <trkpt lat="47.606433" lon="12.238221">
        <ele>1340.7</ele>
      </trkpt>
      <trkpt lat="47.606377" lon="12.238188">
        <ele>1341.4</ele>
      </trkpt>
      <trkpt lat="47.60632" lon="12.238166">
        <ele>1342.3</ele>
      </trkpt>
      <trkpt lat="47.606228" lon="12.238151">
        <ele>1342.0</ele>
      </trkpt>
      <trkpt lat="47.606124" lon="12.23812">
        <ele>1342.6</ele>
      </trkpt>
      <trkpt lat="47.606029" lon="12.238084">
        <ele>1345.1</ele>
      </trkpt>
      <trkpt lat="47.605943" lon="12.238067">
        <ele>1347.6</ele>
      </trkpt>
      <trkpt lat="47.605893" lon="12.23807">
        <ele>1348.4</ele>
      </trkpt>
      <trkpt lat="47.605862" lon="12.238094">
        <ele>1349.6</ele>
      </trkpt>
      <trkpt lat="47.605823" lon="12.238154">
        <ele>1351.6</ele>
      </trkpt>
      <trkpt lat="47.60576" lon="12.238231">
        <ele>1353.3</ele>
      </trkpt>
      <trkpt lat="47.605734" lon="12.238274">
        <ele>1353.9</ele>
      </trkpt>
      <trkpt lat="47.605704" lon="12.23831">
        <ele>1354.2</ele>
      </trkpt>
      <trkpt lat="47.605676" lon="12.238363">
        <ele>1354.8</ele>
      </trkpt>
      <trkpt lat="47.605643" lon="12.238398">
        <ele>1354.9</ele>
      </trkpt>
      <trkpt lat="47.605599" lon="12.238479">
        <ele>1355.9</ele>
      </trkpt>
      <trkpt lat="47.605532" lon="12.238525">
        <ele>1355.4</ele>
      </trkpt>
      <trkpt lat="47.605482" lon="12.238608">
        <ele>1355.9</ele>
      </trkpt>
      <trkpt lat="47.605469" lon="12.238626">
        <ele>1355.8</ele>
        <name>47.605469,12.238626</name>
        <extensions>
          <oa:Extension>
            <oa:mapZoom>18</oa:mapZoom>
          </oa:Extension>
        </extensions>
      </trkpt>
      <trkpt lat="47.605417" lon="12.2387">
        <ele>1355.5</ele>
      </trkpt>
      <trkpt lat="47.605416" lon="12.238773">
        <ele>1356.2</ele>
      </trkpt>
      <trkpt lat="47.605441" lon="12.238893">
        <ele>1358.3</ele>
      </trkpt>
      <trkpt lat="47.605484" lon="12.239094">
        <ele>1362.3</ele>
      </trkpt>
      <trkpt lat="47.605518" lon="12.239326">
        <ele>1365.7</ele>
      </trkpt>
      <trkpt lat="47.60555" lon="12.239535">
        <ele>1369.5</ele>
      </trkpt>
      <trkpt lat="47.605556" lon="12.239652">
        <ele>1371.4</ele>
      </trkpt>
      <trkpt lat="47.605553" lon="12.239743">
        <ele>1372.8</ele>
      </trkpt>
      <trkpt lat="47.60554" lon="12.239851">
        <ele>1374.1</ele>
      </trkpt>
      <trkpt lat="47.605531" lon="12.23991">
        <ele>1374.9</ele>
      </trkpt>
      <trkpt lat="47.605527" lon="12.239976">
        <ele>1376.1</ele>
      </trkpt>
      <trkpt lat="47.60553" lon="12.240012">
        <ele>1376.9</ele>
      </trkpt>
      <trkpt lat="47.60554" lon="12.240035">
        <ele>1377.8</ele>
      </trkpt>
      <trkpt lat="47.605557" lon="12.240043">
        <ele>1378.9</ele>
      </trkpt>
      <trkpt lat="47.605574" lon="12.240031">
        <ele>1379.6</ele>
      </trkpt>
      <trkpt lat="47.60559" lon="12.239984">
        <ele>1379.6</ele>
      </trkpt>
      <trkpt lat="47.605622" lon="12.239857">
        <ele>1379.6</ele>
      </trkpt>
      <trkpt lat="47.605666" lon="12.239767">
        <ele>1380.7</ele>
      </trkpt>
      <trkpt lat="47.605738" lon="12.239672">
        <ele>1383.0</ele>
      </trkpt>
      <trkpt lat="47.605791" lon="12.239609">
        <ele>1384.6</ele>
      </trkpt>
      <trkpt lat="47.605815" lon="12.239553">
        <ele>1385.1</ele>
      </trkpt>
      <trkpt lat="47.605836" lon="12.23945">
        <ele>1385.5</ele>
      </trkpt>
      <trkpt lat="47.605847" lon="12.239339">
        <ele>1385.3</ele>
      </trkpt>
      <trkpt lat="47.605868" lon="12.239277">
        <ele>1385.5</ele>
      </trkpt>
      <trkpt lat="47.605909" lon="12.239212">
        <ele>1385.9</ele>
      </trkpt>
      <trkpt lat="47.605949" lon="12.239154">
        <ele>1385.9</ele>
      </trkpt>
      <trkpt lat="47.605975" lon="12.239126">
        <ele>1385.8</ele>
      </trkpt>
      <trkpt lat="47.606007" lon="12.23911">
        <ele>1385.9</ele>
      </trkpt>
      <trkpt lat="47.606025" lon="12.239113">
        <ele>1386.1</ele>
      </trkpt>
      <trkpt lat="47.606041" lon="12.239115">
        <ele>1386.3</ele>
      </trkpt>
      <trkpt lat="47.606081" lon="12.239168">
        <ele>1387.4</ele>
      </trkpt>
      <trkpt lat="47.60614" lon="12.239248">
        <ele>1388.0</ele>
      </trkpt>
      <trkpt lat="47.606171" lon="12.239268">
        <ele>1388.4</ele>
      </trkpt>
      <trkpt lat="47.606206" lon="12.23927">
        <ele>1389.0</ele>
      </trkpt>
      <trkpt lat="47.606252" lon="12.239259">
        <ele>1389.7</ele>
      </trkpt>
      <trkpt lat="47.606308" lon="12.239361">
        <ele>1390.7</ele>
      </trkpt>
      <trkpt lat="47.606363" lon="12.239462">
        <ele>1391.7</ele>
      </trkpt>
      <trkpt lat="47.606451" lon="12.239527">
        <ele>1392.4</ele>
      </trkpt>
      <trkpt lat="47.606484" lon="12.239548">
        <ele>1392.6</ele>
      </trkpt>
      <trkpt lat="47.606497" lon="12.239566">
        <ele>1392.9</ele>
        <name>Vorderkaiserfeldenhütte, Ebbs</name>
        <extensions>
          <oa:Extension>
            <oa:mapZoom>18</oa:mapZoom>
          </oa:Extension>
        </extensions>
      </trkpt>
      <trkpt lat="47.606555" lon="12.239641">
        <ele>1394.3</ele>
      </trkpt>
      <trkpt lat="47.606627" lon="12.239707">
        <ele>1395.5</ele>
      </trkpt>
      <trkpt lat="47.606657" lon="12.239737">
        <ele>1396.3</ele>
      </trkpt>
      <trkpt lat="47.606722" lon="12.239805">
        <ele>1398.7</ele>
      </trkpt>
      <trkpt lat="47.606779" lon="12.239858">
        <ele>1401.5</ele>
      </trkpt>
      <trkpt lat="47.606824" lon="12.239876">
        <ele>1402.7</ele>
      </trkpt>
      <trkpt lat="47.606885" lon="12.239917">
        <ele>1405.1</ele>
      </trkpt>
      <trkpt lat="47.606928" lon="12.239934">
        <ele>1405.4</ele>
      </trkpt>
      <trkpt lat="47.606962" lon="12.239956">
        <ele>1406.3</ele>
      </trkpt>
      <trkpt lat="47.606994" lon="12.24001">
        <ele>1409.5</ele>
      </trkpt>
      <trkpt lat="47.607034" lon="12.240031">
        <ele>1412.8</ele>
      </trkpt>
      <trkpt lat="47.607055" lon="12.240031">
        <ele>1413.9</ele>
      </trkpt>
      <trkpt lat="47.607086" lon="12.240024">
        <ele>1414.8</ele>
      </trkpt>
      <trkpt lat="47.607112" lon="12.24003">
        <ele>1415.8</ele>
      </trkpt>
      <trkpt lat="47.607128" lon="12.240058">
        <ele>1417.2</ele>
      </trkpt>
      <trkpt lat="47.607142" lon="12.240117">
        <ele>1419.9</ele>
      </trkpt>
      <trkpt lat="47.607166" lon="12.240214">
        <ele>1424.4</ele>
      </trkpt>
      <trkpt lat="47.60719" lon="12.240295">
        <ele>1427.7</ele>
      </trkpt>
      <trkpt lat="47.607205" lon="12.240343">
        <ele>1429.8</ele>
      </trkpt>
      <trkpt lat="47.607227" lon="12.240379">
        <ele>1431.9</ele>
      </trkpt>
      <trkpt lat="47.60725" lon="12.240375">
        <ele>1432.8</ele>
      </trkpt>
      <trkpt lat="47.60727" lon="12.240365">
        <ele>1433.1</ele>
      </trkpt>
      <trkpt lat="47.607284" lon="12.240336">
        <ele>1432.6</ele>
      </trkpt>
      <trkpt lat="47.607293" lon="12.240301">
        <ele>1431.6</ele>
      </trkpt>
      <trkpt lat="47.607316" lon="12.240274">
        <ele>1431.1</ele>
      </trkpt>
      <trkpt lat="47.60734" lon="12.240286">
        <ele>1431.9</ele>
      </trkpt>
      <trkpt lat="47.607348" lon="12.240345">
        <ele>1434.1</ele>
      </trkpt>
      <trkpt lat="47.607357" lon="12.240387">
        <ele>1435.8</ele>
      </trkpt>
      <trkpt lat="47.60738" lon="12.240445">
        <ele>1438.6</ele>
      </trkpt>
      <trkpt lat="47.607404" lon="12.24055">
        <ele>1442.8</ele>
      </trkpt>
      <trkpt lat="47.607377" lon="12.240649">
        <ele>1444.5</ele>
      </trkpt>
      <trkpt lat="47.607386" lon="12.240707">
        <ele>1445.9</ele>
      </trkpt>
      <trkpt lat="47.60742" lon="12.240727">
        <ele>1447.6</ele>
      </trkpt>
      <trkpt lat="47.607491" lon="12.240701">
        <ele>1448.9</ele>
      </trkpt>
      <trkpt lat="47.607576" lon="12.240668">
        <ele>1451.1</ele>
      </trkpt>
      <trkpt lat="47.607623" lon="12.240633">
        <ele>1452.8</ele>
      </trkpt>
      <trkpt lat="47.607661" lon="12.24058">
        <ele>1453.6</ele>
      </trkpt>
      <trkpt lat="47.607712" lon="12.240558">
        <ele>1455.1</ele>
      </trkpt>
      <trkpt lat="47.60775" lon="12.240556">
        <ele>1456.7</ele>
      </trkpt>
      <trkpt lat="47.607779" lon="12.240536">
        <ele>1457.3</ele>
      </trkpt>
      <trkpt lat="47.607791" lon="12.24054">
        <ele>1458.0</ele>
      </trkpt>
      <trkpt lat="47.607796" lon="12.240557">
        <ele>1458.7</ele>
      </trkpt>
      <trkpt lat="47.60779" lon="12.240567">
        <ele>1458.8</ele>
      </trkpt>
      <trkpt lat="47.607774" lon="12.240609">
        <ele>1459.4</ele>
      </trkpt>
      <trkpt lat="47.607769" lon="12.240644">
        <ele>1460.4</ele>
      </trkpt>
      <trkpt lat="47.60778" lon="12.24065">
        <ele>1461.1</ele>
      </trkpt>
      <trkpt lat="47.60779" lon="12.240652">
        <ele>1461.7</ele>
      </trkpt>
      <trkpt lat="47.607792" lon="12.240661">
        <ele>1462.1</ele>
      </trkpt>
      <trkpt lat="47.607776" lon="12.2407">
        <ele>1462.5</ele>
      </trkpt>
      <trkpt lat="47.607766" lon="12.240724">
        <ele>1462.6</ele>
      </trkpt>
      <trkpt lat="47.607771" lon="12.24073">
        <ele>1463.1</ele>
      </trkpt>
      <trkpt lat="47.607784" lon="12.240728">
        <ele>1463.8</ele>
      </trkpt>
      <trkpt lat="47.607817" lon="12.240702">
        <ele>1464.7</ele>
      </trkpt>
      <trkpt lat="47.607875" lon="12.240678">
        <ele>1466.5</ele>
      </trkpt>
      <trkpt lat="47.607921" lon="12.240656">
        <ele>1467.8</ele>
      </trkpt>
      <trkpt lat="47.607943" lon="12.240632">
        <ele>1468.2</ele>
      </trkpt>
      <trkpt lat="47.607949" lon="12.240628">
        <ele>1468.4</ele>
      </trkpt>
      <trkpt lat="47.607964" lon="12.240629">
        <ele>1469.2</ele>
      </trkpt>
      <trkpt lat="47.607964" lon="12.240679">
        <ele>1470.4</ele>
      </trkpt>
      <trkpt lat="47.607949" lon="12.240763">
        <ele>1472.5</ele>
      </trkpt>
      <trkpt lat="47.607915" lon="12.240864">
        <ele>1475.2</ele>
      </trkpt>
      <trkpt lat="47.6079" lon="12.240931">
        <ele>1477.1</ele>
      </trkpt>
      <trkpt lat="47.607903" lon="12.240956">
        <ele>1478.2</ele>
      </trkpt>
      <trkpt lat="47.607916" lon="12.240969">
        <ele>1479.3</ele>
      </trkpt>
      <trkpt lat="47.607906" lon="12.241006">
        <ele>1480.3</ele>
      </trkpt>
      <trkpt lat="47.60789" lon="12.24102">
        <ele>1479.9</ele>
      </trkpt>
      <trkpt lat="47.607903" lon="12.241032">
        <ele>1481.2</ele>
      </trkpt>
      <trkpt lat="47.607947" lon="12.241015">
        <ele>1482.7</ele>
      </trkpt>
      <trkpt lat="47.607961" lon="12.241022">
        <ele>1483.6</ele>
      </trkpt>
      <trkpt lat="47.607954" lon="12.241053">
        <ele>1484.4</ele>
      </trkpt>
      <trkpt lat="47.607945" lon="12.241075">
        <ele>1484.8</ele>
      </trkpt>
      <trkpt lat="47.607959" lon="12.241088">
        <ele>1485.9</ele>
      </trkpt>
      <trkpt lat="47.607995" lon="12.241074">
        <ele>1487.1</ele>
      </trkpt>
      <trkpt lat="47.608" lon="12.24109">
        <ele>1487.9</ele>
      </trkpt>
      <trkpt lat="47.607985" lon="12.241115">
        <ele>1488.0</ele>
      </trkpt>
      <trkpt lat="47.607985" lon="12.241128">
        <ele>1488.5</ele>
      </trkpt>
      <trkpt lat="47.608003" lon="12.241133">
        <ele>1489.5</ele>
      </trkpt>
      <trkpt lat="47.608034" lon="12.241145">
        <ele>1491.3</ele>
      </trkpt>
      <trkpt lat="47.608055" lon="12.24116">
        <ele>1492.5</ele>
      </trkpt>
      <trkpt lat="47.608039" lon="12.241199">
        <ele>1493.2</ele>
      </trkpt>
      <trkpt lat="47.607978" lon="12.241297">
        <ele>1495.2</ele>
      </trkpt>
      <trkpt lat="47.607933" lon="12.241342">
        <ele>1496.4</ele>
      </trkpt>
      <trkpt lat="47.607846" lon="12.241434">
        <ele>1499.2</ele>
      </trkpt>
      <trkpt lat="47.607787" lon="12.241481">
        <ele>1500.2</ele>
      </trkpt>
      <trkpt lat="47.607747" lon="12.24159">
        <ele>1503.1</ele>
      </trkpt>
      <trkpt lat="47.607739" lon="12.241648">
        <ele>1504.4</ele>
      </trkpt>
      <trkpt lat="47.607742" lon="12.241724">
        <ele>1506.6</ele>
      </trkpt>
      <trkpt lat="47.607753" lon="12.241737">
        <ele>1507.8</ele>
      </trkpt>
      <trkpt lat="47.607781" lon="12.241724">
        <ele>1509.3</ele>
      </trkpt>
      <trkpt lat="47.607846" lon="12.241683">
        <ele>1511.5</ele>
      </trkpt>
      <trkpt lat="47.607889" lon="12.241643">
        <ele>1511.3</ele>
      </trkpt>
      <trkpt lat="47.607899" lon="12.241649">
        <ele>1511.9</ele>
      </trkpt>
      <trkpt lat="47.607874" lon="12.241738">
        <ele>1514.9</ele>
      </trkpt>
      <trkpt lat="47.607857" lon="12.241831">
        <ele>1517.6</ele>
      </trkpt>
      <trkpt lat="47.607837" lon="12.241882">
        <ele>1518.7</ele>
      </trkpt>
      <trkpt lat="47.607823" lon="12.241928">
        <ele>1520.0</ele>
      </trkpt>
      <trkpt lat="47.60781" lon="12.24202">
        <ele>1523.7</ele>
      </trkpt>
      <trkpt lat="47.607783" lon="12.242071">
        <ele>1524.7</ele>
      </trkpt>
      <trkpt lat="47.607757" lon="12.242118">
        <ele>1525.3</ele>
      </trkpt>
      <trkpt lat="47.607763" lon="12.242142">
        <ele>1526.7</ele>
      </trkpt>
      <trkpt lat="47.607793" lon="12.242118">
        <ele>1527.3</ele>
      </trkpt>
      <trkpt lat="47.607834" lon="12.242071">
        <ele>1527.3</ele>
      </trkpt>
      <trkpt lat="47.607884" lon="12.242055">
        <ele>1528.9</ele>
      </trkpt>
      <trkpt lat="47.60795" lon="12.242057">
        <ele>1532.3</ele>
      </trkpt>
      <trkpt lat="47.608026" lon="12.242029">
        <ele>1534.6</ele>
      </trkpt>
      <trkpt lat="47.608044" lon="12.242031">
        <ele>1535.4</ele>
      </trkpt>
      <trkpt lat="47.608039" lon="12.242059">
        <ele>1536.2</ele>
      </trkpt>
      <trkpt lat="47.608018" lon="12.242114">
        <ele>1537.7</ele>
      </trkpt>
      <trkpt lat="47.608016" lon="12.242167">
        <ele>1539.7</ele>
      </trkpt>
      <trkpt lat="47.607974" lon="12.242199">
        <ele>1539.4</ele>
      </trkpt>
      <trkpt lat="47.607969" lon="12.242246">
        <ele>1540.5</ele>
      </trkpt>
      <trkpt lat="47.607975" lon="12.242288">
        <ele>1541.5</ele>
      </trkpt>
      <trkpt lat="47.608013" lon="12.24228">
        <ele>1542.5</ele>
      </trkpt>
      <trkpt lat="47.608061" lon="12.242317">
        <ele>1544.3</ele>
      </trkpt>
      <trkpt lat="47.608056" lon="12.242386">
        <ele>1545.2</ele>
      </trkpt>
      <trkpt lat="47.608063" lon="12.242467">
        <ele>1546.6</ele>
      </trkpt>
      <trkpt lat="47.608088" lon="12.242523">
        <ele>1548.5</ele>
      </trkpt>
      <trkpt lat="47.608109" lon="12.242545">
        <ele>1549.6</ele>
      </trkpt>
      <trkpt lat="47.608106" lon="12.242617">
        <ele>1550.9</ele>
      </trkpt>
      <trkpt lat="47.608102" lon="12.242684">
        <ele>1552.4</ele>
      </trkpt>
      <trkpt lat="47.608091" lon="12.242752">
        <ele>1553.9</ele>
      </trkpt>
      <trkpt lat="47.608109" lon="12.242784">
        <ele>1554.8</ele>
      </trkpt>
      <trkpt lat="47.60814" lon="12.242793">
        <ele>1555.3</ele>
      </trkpt>
      <trkpt lat="47.608176" lon="12.242851">
        <ele>1557.1</ele>
      </trkpt>
      <trkpt lat="47.608225" lon="12.242904">
        <ele>1558.7</ele>
      </trkpt>
      <trkpt lat="47.608267" lon="12.24297">
        <ele>1560.5</ele>
      </trkpt>
      <trkpt lat="47.60832" lon="12.242995">
        <ele>1561.9</ele>
      </trkpt>
      <trkpt lat="47.608343" lon="12.243002">
        <ele>1562.9</ele>
      </trkpt>
      <trkpt lat="47.608347" lon="12.243043">
        <ele>1563.8</ele>
      </trkpt>
      <trkpt lat="47.608337" lon="12.24313">
        <ele>1566.0</ele>
      </trkpt>
      <trkpt lat="47.608362" lon="12.243149">
        <ele>1567.0</ele>
      </trkpt>
      <trkpt lat="47.608381" lon="12.243165">
        <ele>1568.1</ele>
      </trkpt>
      <trkpt lat="47.608394" lon="12.243201">
        <ele>1569.5</ele>
      </trkpt>
      <trkpt lat="47.60842" lon="12.243214">
        <ele>1570.8</ele>
      </trkpt>
      <trkpt lat="47.608444" lon="12.243191">
        <ele>1571.3</ele>
      </trkpt>
      <trkpt lat="47.608485" lon="12.243201">
        <ele>1573.6</ele>
      </trkpt>
      <trkpt lat="47.608513" lon="12.243225">
        <ele>1575.5</ele>
      </trkpt>
      <trkpt lat="47.608533" lon="12.24331">
        <ele>1579.2</ele>
      </trkpt>
      <trkpt lat="47.608556" lon="12.243336">
        <ele>1581.3</ele>
      </trkpt>
      <trkpt lat="47.60859" lon="12.243331">
        <ele>1582.8</ele>
      </trkpt>
      <trkpt lat="47.608625" lon="12.243338">
        <ele>1584.7</ele>
      </trkpt>
      <trkpt lat="47.608646" lon="12.243343">
        <ele>1585.7</ele>
      </trkpt>
      <trkpt lat="47.60866" lon="12.243365">
        <ele>1586.5</ele>
      </trkpt>
      <trkpt lat="47.608682" lon="12.243396">
        <ele>1587.6</ele>
      </trkpt>
      <trkpt lat="47.608687" lon="12.243403">
        <ele>1587.9</ele>
      </trkpt>
      <trkpt lat="47.608701" lon="12.243403">
        <ele>1588.5</ele>
      </trkpt>
      <trkpt lat="47.608712" lon="12.243378">
        <ele>1589.0</ele>
      </trkpt>
      <trkpt lat="47.608719" lon="12.243382">
        <ele>1589.4</ele>
      </trkpt>
      <trkpt lat="47.608719" lon="12.243394">
        <ele>1589.4</ele>
      </trkpt>
      <trkpt lat="47.608705" lon="12.243423">
        <ele>1588.7</ele>
      </trkpt>
      <trkpt lat="47.608696" lon="12.243432">
        <ele>1588.4</ele>
      </trkpt>
      <trkpt lat="47.608666" lon="12.243443">
        <ele>1587.4</ele>
      </trkpt>
      <trkpt lat="47.608651" lon="12.243479">
        <ele>1587.6</ele>
      </trkpt>
      <trkpt lat="47.608637" lon="12.243501">
        <ele>1587.7</ele>
        <name>47.608637,12.243501</name>
        <extensions>
          <oa:Extension>
            <oa:mapZoom>16</oa:mapZoom>
          </oa:Extension>
        </extensions>
      </trkpt>
      <trkpt lat="47.608651" lon="12.243479">
        <ele>1587.6</ele>
      </trkpt>
      <trkpt lat="47.608666" lon="12.243443">
        <ele>1587.4</ele>
      </trkpt>
      <trkpt lat="47.608696" lon="12.243432">
        <ele>1588.4</ele>
      </trkpt>
      <trkpt lat="47.608705" lon="12.243423">
        <ele>1588.7</ele>
      </trkpt>
      <trkpt lat="47.608719" lon="12.243394">
        <ele>1589.4</ele>
      </trkpt>
      <trkpt lat="47.608719" lon="12.243382">
        <ele>1589.4</ele>
      </trkpt>
      <trkpt lat="47.608712" lon="12.243378">
        <ele>1589.0</ele>
      </trkpt>
      <trkpt lat="47.608701" lon="12.243403">
        <ele>1588.5</ele>
      </trkpt>
      <trkpt lat="47.608687" lon="12.243403">
        <ele>1587.9</ele>
      </trkpt>
      <trkpt lat="47.608682" lon="12.243396">
        <ele>1587.6</ele>
      </trkpt>
      <trkpt lat="47.60866" lon="12.243365">
        <ele>1586.5</ele>
      </trkpt>
      <trkpt lat="47.608646" lon="12.243343">
        <ele>1585.7</ele>
      </trkpt>
      <trkpt lat="47.608625" lon="12.243338">
        <ele>1584.7</ele>
      </trkpt>
      <trkpt lat="47.60859" lon="12.243331">
        <ele>1582.8</ele>
      </trkpt>
      <trkpt lat="47.608556" lon="12.243336">
        <ele>1581.3</ele>
      </trkpt>
      <trkpt lat="47.608533" lon="12.24331">
        <ele>1579.2</ele>
      </trkpt>
      <trkpt lat="47.608513" lon="12.243225">
        <ele>1575.5</ele>
      </trkpt>
      <trkpt lat="47.608485" lon="12.243201">
        <ele>1573.6</ele>
      </trkpt>
      <trkpt lat="47.608444" lon="12.243191">
        <ele>1571.3</ele>
      </trkpt>
      <trkpt lat="47.60842" lon="12.243214">
        <ele>1570.8</ele>
      </trkpt>
      <trkpt lat="47.608394" lon="12.243201">
        <ele>1569.5</ele>
      </trkpt>
      <trkpt lat="47.608381" lon="12.243165">
        <ele>1568.1</ele>
      </trkpt>
      <trkpt lat="47.608362" lon="12.243149">
        <ele>1567.0</ele>
      </trkpt>
      <trkpt lat="47.608337" lon="12.24313">
        <ele>1566.0</ele>
      </trkpt>
      <trkpt lat="47.608347" lon="12.243043">
        <ele>1563.8</ele>
      </trkpt>
      <trkpt lat="47.608343" lon="12.243002">
        <ele>1562.9</ele>
      </trkpt>
      <trkpt lat="47.60832" lon="12.242995">
        <ele>1561.9</ele>
      </trkpt>
      <trkpt lat="47.608267" lon="12.24297">
        <ele>1560.5</ele>
      </trkpt>
      <trkpt lat="47.608225" lon="12.242904">
        <ele>1558.7</ele>
      </trkpt>
      <trkpt lat="47.608176" lon="12.242851">
        <ele>1557.1</ele>
      </trkpt>
      <trkpt lat="47.60814" lon="12.242793">
        <ele>1555.3</ele>
      </trkpt>
      <trkpt lat="47.608109" lon="12.242784">
        <ele>1554.8</ele>
      </trkpt>
      <trkpt lat="47.608091" lon="12.242752">
        <ele>1553.9</ele>
      </trkpt>
      <trkpt lat="47.608102" lon="12.242684">
        <ele>1552.4</ele>
      </trkpt>
      <trkpt lat="47.608106" lon="12.242617">
        <ele>1550.9</ele>
      </trkpt>
      <trkpt lat="47.608109" lon="12.242545">
        <ele>1549.6</ele>
      </trkpt>
      <trkpt lat="47.608088" lon="12.242523">
        <ele>1548.5</ele>
      </trkpt>
      <trkpt lat="47.608063" lon="12.242467">
        <ele>1546.6</ele>
      </trkpt>
      <trkpt lat="47.608056" lon="12.242386">
        <ele>1545.2</ele>
      </trkpt>
      <trkpt lat="47.608061" lon="12.242317">
        <ele>1544.3</ele>
      </trkpt>
      <trkpt lat="47.608013" lon="12.24228">
        <ele>1542.5</ele>
      </trkpt>
      <trkpt lat="47.607975" lon="12.242288">
        <ele>1541.5</ele>
      </trkpt>
      <trkpt lat="47.607969" lon="12.242246">
        <ele>1540.5</ele>
      </trkpt>
      <trkpt lat="47.607974" lon="12.242199">
        <ele>1539.4</ele>
      </trkpt>
      <trkpt lat="47.608016" lon="12.242167">
        <ele>1539.7</ele>
      </trkpt>
      <trkpt lat="47.608018" lon="12.242114">
        <ele>1537.7</ele>
      </trkpt>
      <trkpt lat="47.608039" lon="12.242059">
        <ele>1536.2</ele>
      </trkpt>
      <trkpt lat="47.608044" lon="12.242031">
        <ele>1535.4</ele>
      </trkpt>
      <trkpt lat="47.608026" lon="12.242029">
        <ele>1534.6</ele>
      </trkpt>
      <trkpt lat="47.60795" lon="12.242057">
        <ele>1532.3</ele>
      </trkpt>
      <trkpt lat="47.607884" lon="12.242055">
        <ele>1528.9</ele>
      </trkpt>
      <trkpt lat="47.607834" lon="12.242071">
        <ele>1527.3</ele>
      </trkpt>
      <trkpt lat="47.607793" lon="12.242118">
        <ele>1527.3</ele>
      </trkpt>
      <trkpt lat="47.607763" lon="12.242142">
        <ele>1526.7</ele>
      </trkpt>
      <trkpt lat="47.607757" lon="12.242118">
        <ele>1525.3</ele>
      </trkpt>
      <trkpt lat="47.607783" lon="12.242071">
        <ele>1524.7</ele>
      </trkpt>
      <trkpt lat="47.60781" lon="12.24202">
        <ele>1523.7</ele>
      </trkpt>
      <trkpt lat="47.607823" lon="12.241928">
        <ele>1520.0</ele>
      </trkpt>
      <trkpt lat="47.607837" lon="12.241882">
        <ele>1518.7</ele>
      </trkpt>
      <trkpt lat="47.607857" lon="12.241831">
        <ele>1517.6</ele>
      </trkpt>
      <trkpt lat="47.607874" lon="12.241738">
        <ele>1514.9</ele>
      </trkpt>
      <trkpt lat="47.607899" lon="12.241649">
        <ele>1511.9</ele>
      </trkpt>
      <trkpt lat="47.607889" lon="12.241643">
        <ele>1511.3</ele>
      </trkpt>
      <trkpt lat="47.607846" lon="12.241683">
        <ele>1511.5</ele>
      </trkpt>
      <trkpt lat="47.607781" lon="12.241724">
        <ele>1509.3</ele>
      </trkpt>
      <trkpt lat="47.607753" lon="12.241737">
        <ele>1507.8</ele>
      </trkpt>
      <trkpt lat="47.607742" lon="12.241724">
        <ele>1506.6</ele>
      </trkpt>
      <trkpt lat="47.607739" lon="12.241648">
        <ele>1504.4</ele>
      </trkpt>
      <trkpt lat="47.607747" lon="12.24159">
        <ele>1503.1</ele>
      </trkpt>
      <trkpt lat="47.607787" lon="12.241481">
        <ele>1500.2</ele>
      </trkpt>
      <trkpt lat="47.607846" lon="12.241434">
        <ele>1499.2</ele>
      </trkpt>
      <trkpt lat="47.607933" lon="12.241342">
        <ele>1496.4</ele>
      </trkpt>
      <trkpt lat="47.607978" lon="12.241297">
        <ele>1495.2</ele>
      </trkpt>
      <trkpt lat="47.608039" lon="12.241199">
        <ele>1493.2</ele>
      </trkpt>
      <trkpt lat="47.608055" lon="12.24116">
        <ele>1492.5</ele>
      </trkpt>
      <trkpt lat="47.608034" lon="12.241145">
        <ele>1491.3</ele>
      </trkpt>
      <trkpt lat="47.608003" lon="12.241133">
        <ele>1489.5</ele>
      </trkpt>
      <trkpt lat="47.607985" lon="12.241128">
        <ele>1488.5</ele>
      </trkpt>
      <trkpt lat="47.607985" lon="12.241115">
        <ele>1488.0</ele>
      </trkpt>
      <trkpt lat="47.608" lon="12.24109">
        <ele>1487.9</ele>
      </trkpt>
      <trkpt lat="47.607995" lon="12.241074">
        <ele>1487.1</ele>
      </trkpt>
      <trkpt lat="47.607959" lon="12.241088">
        <ele>1485.9</ele>
      </trkpt>
      <trkpt lat="47.607945" lon="12.241075">
        <ele>1484.8</ele>
      </trkpt>
      <trkpt lat="47.607954" lon="12.241053">
        <ele>1484.4</ele>
      </trkpt>
      <trkpt lat="47.607961" lon="12.241022">
        <ele>1483.6</ele>
      </trkpt>
      <trkpt lat="47.607947" lon="12.241015">
        <ele>1482.7</ele>
      </trkpt>
      <trkpt lat="47.607903" lon="12.241032">
        <ele>1481.2</ele>
      </trkpt>
      <trkpt lat="47.60789" lon="12.24102">
        <ele>1479.9</ele>
      </trkpt>
      <trkpt lat="47.607906" lon="12.241006">
        <ele>1480.3</ele>
      </trkpt>
      <trkpt lat="47.607916" lon="12.240969">
        <ele>1479.3</ele>
      </trkpt>
      <trkpt lat="47.607903" lon="12.240956">
        <ele>1478.2</ele>
      </trkpt>
      <trkpt lat="47.6079" lon="12.240931">
        <ele>1477.1</ele>
      </trkpt>
      <trkpt lat="47.607915" lon="12.240864">
        <ele>1475.2</ele>
      </trkpt>
      <trkpt lat="47.607949" lon="12.240763">
        <ele>1472.5</ele>
      </trkpt>
      <trkpt lat="47.607964" lon="12.240679">
        <ele>1470.4</ele>
      </trkpt>
      <trkpt lat="47.607964" lon="12.240629">
        <ele>1469.2</ele>
      </trkpt>
      <trkpt lat="47.607949" lon="12.240628">
        <ele>1468.4</ele>
      </trkpt>
      <trkpt lat="47.607943" lon="12.240632">
        <ele>1468.2</ele>
      </trkpt>
      <trkpt lat="47.607921" lon="12.240656">
        <ele>1467.8</ele>
      </trkpt>
      <trkpt lat="47.607875" lon="12.240678">
        <ele>1466.5</ele>
      </trkpt>
      <trkpt lat="47.607817" lon="12.240702">
        <ele>1464.7</ele>
      </trkpt>
      <trkpt lat="47.607784" lon="12.240728">
        <ele>1463.8</ele>
      </trkpt>
      <trkpt lat="47.607771" lon="12.24073">
        <ele>1463.1</ele>
      </trkpt>
      <trkpt lat="47.607766" lon="12.240724">
        <ele>1462.6</ele>
      </trkpt>
      <trkpt lat="47.607776" lon="12.2407">
        <ele>1462.5</ele>
      </trkpt>
      <trkpt lat="47.607792" lon="12.240661">
        <ele>1462.1</ele>
      </trkpt>
      <trkpt lat="47.60779" lon="12.240652">
        <ele>1461.7</ele>
      </trkpt>
      <trkpt lat="47.60778" lon="12.24065">
        <ele>1461.1</ele>
      </trkpt>
      <trkpt lat="47.607769" lon="12.240644">
        <ele>1460.4</ele>
      </trkpt>
      <trkpt lat="47.607774" lon="12.240609">
        <ele>1459.4</ele>
      </trkpt>
      <trkpt lat="47.60779" lon="12.240567">
        <ele>1458.8</ele>
      </trkpt>
      <trkpt lat="47.607796" lon="12.240557">
        <ele>1458.7</ele>
      </trkpt>
      <trkpt lat="47.607791" lon="12.24054">
        <ele>1458.0</ele>
      </trkpt>
      <trkpt lat="47.607779" lon="12.240536">
        <ele>1457.3</ele>
      </trkpt>
      <trkpt lat="47.60775" lon="12.240556">
        <ele>1456.7</ele>
      </trkpt>
      <trkpt lat="47.607712" lon="12.240558">
        <ele>1455.1</ele>
      </trkpt>
      <trkpt lat="47.607661" lon="12.24058">
        <ele>1453.6</ele>
      </trkpt>
      <trkpt lat="47.607623" lon="12.240633">
        <ele>1452.8</ele>
      </trkpt>
      <trkpt lat="47.607576" lon="12.240668">
        <ele>1451.1</ele>
      </trkpt>
      <trkpt lat="47.607491" lon="12.240701">
        <ele>1448.9</ele>
      </trkpt>
      <trkpt lat="47.60742" lon="12.240727">
        <ele>1447.6</ele>
      </trkpt>
      <trkpt lat="47.607386" lon="12.240707">
        <ele>1445.9</ele>
      </trkpt>
      <trkpt lat="47.607377" lon="12.240649">
        <ele>1444.5</ele>
      </trkpt>
      <trkpt lat="47.607404" lon="12.24055">
        <ele>1442.8</ele>
      </trkpt>
      <trkpt lat="47.60738" lon="12.240445">
        <ele>1438.6</ele>
      </trkpt>
      <trkpt lat="47.607357" lon="12.240387">
        <ele>1435.8</ele>
      </trkpt>
      <trkpt lat="47.607348" lon="12.240345">
        <ele>1434.1</ele>
      </trkpt>
      <trkpt lat="47.60734" lon="12.240286">
        <ele>1431.9</ele>
      </trkpt>
      <trkpt lat="47.607316" lon="12.240274">
        <ele>1431.1</ele>
      </trkpt>
      <trkpt lat="47.607293" lon="12.240301">
        <ele>1431.6</ele>
      </trkpt>
      <trkpt lat="47.607284" lon="12.240336">
        <ele>1432.6</ele>
      </trkpt>
      <trkpt lat="47.60727" lon="12.240365">
        <ele>1433.1</ele>
      </trkpt>
      <trkpt lat="47.60725" lon="12.240375">
        <ele>1432.8</ele>
      </trkpt>
      <trkpt lat="47.607227" lon="12.240379">
        <ele>1431.9</ele>
      </trkpt>
      <trkpt lat="47.607205" lon="12.240343">
        <ele>1429.8</ele>
      </trkpt>
      <trkpt lat="47.60719" lon="12.240295">
        <ele>1427.7</ele>
      </trkpt>
      <trkpt lat="47.607166" lon="12.240214">
        <ele>1424.4</ele>
      </trkpt>
      <trkpt lat="47.607142" lon="12.240117">
        <ele>1419.9</ele>
      </trkpt>
      <trkpt lat="47.607128" lon="12.240058">
        <ele>1417.2</ele>
      </trkpt>
      <trkpt lat="47.607112" lon="12.24003">
        <ele>1415.8</ele>
      </trkpt>
      <trkpt lat="47.607086" lon="12.240024">
        <ele>1414.8</ele>
      </trkpt>
      <trkpt lat="47.607055" lon="12.240031">
        <ele>1413.9</ele>
      </trkpt>
      <trkpt lat="47.607034" lon="12.240031">
        <ele>1412.8</ele>
      </trkpt>
      <trkpt lat="47.606994" lon="12.24001">
        <ele>1409.5</ele>
      </trkpt>
      <trkpt lat="47.606962" lon="12.239956">
        <ele>1406.3</ele>
      </trkpt>
      <trkpt lat="47.606928" lon="12.239934">
        <ele>1405.4</ele>
      </trkpt>
      <trkpt lat="47.606885" lon="12.239917">
        <ele>1405.1</ele>
      </trkpt>
      <trkpt lat="47.606824" lon="12.239876">
        <ele>1402.7</ele>
      </trkpt>
      <trkpt lat="47.606779" lon="12.239858">
        <ele>1401.5</ele>
      </trkpt>
      <trkpt lat="47.606722" lon="12.239805">
        <ele>1398.7</ele>
      </trkpt>
      <trkpt lat="47.606657" lon="12.239737">
        <ele>1396.3</ele>
      </trkpt>
      <trkpt lat="47.606627" lon="12.239707">
        <ele>1395.5</ele>
      </trkpt>
      <trkpt lat="47.606555" lon="12.239641">
        <ele>1394.3</ele>
      </trkpt>
      <trkpt lat="47.606484" lon="12.239548">
        <ele>1392.6</ele>
      </trkpt>
      <trkpt lat="47.606451" lon="12.239527">
        <ele>1392.4</ele>
      </trkpt>
      <trkpt lat="47.606363" lon="12.239462">
        <ele>1391.7</ele>
      </trkpt>
      <trkpt lat="47.606308" lon="12.239361">
        <ele>1390.7</ele>
      </trkpt>
      <trkpt lat="47.606252" lon="12.239259">
        <ele>1389.7</ele>
      </trkpt>
      <trkpt lat="47.606206" lon="12.23927">
        <ele>1389.0</ele>
      </trkpt>
      <trkpt lat="47.606171" lon="12.239268">
        <ele>1388.4</ele>
      </trkpt>
      <trkpt lat="47.60614" lon="12.239248">
        <ele>1388.0</ele>
      </trkpt>
      <trkpt lat="47.606081" lon="12.239168">
        <ele>1387.4</ele>
      </trkpt>
      <trkpt lat="47.606041" lon="12.239115">
        <ele>1386.3</ele>
      </trkpt>
      <trkpt lat="47.606025" lon="12.239113">
        <ele>1386.1</ele>
      </trkpt>
      <trkpt lat="47.606007" lon="12.23911">
        <ele>1385.9</ele>
      </trkpt>
      <trkpt lat="47.605975" lon="12.239126">
        <ele>1385.8</ele>
      </trkpt>
      <trkpt lat="47.605949" lon="12.239154">
        <ele>1385.9</ele>
      </trkpt>
      <trkpt lat="47.605909" lon="12.239212">
        <ele>1385.9</ele>
      </trkpt>
      <trkpt lat="47.605902" lon="12.239224">
        <ele>1385.8</ele>
        <name>47.605939,12.239276</name>
        <extensions>
          <oa:Extension>
            <oa:mapZoom>16</oa:mapZoom>
          </oa:Extension>
        </extensions>
      </trkpt>
    </trkseg>
  </trk>
</gpx>